{"type":"FeatureCollection", "features": [
{"type":"Feature","geometry":{"type":"MultiPolygon","coordinates":[[[[49.3569,-12.0908],[48.8797,-12.5731],[48.7983,-13.3542],[48.3355,-13.7731],[47.9053,-13.5964],[47.9278,-14.2539],[47.4919,-15.0767],[47.455,-14.6653],[46.3035,-15.7124],[44.4889,-16.1772],[44.4378,-16.6922],[43.9642,-17.4211],[44.0357,-18.4081],[44.4692,-19.4383],[44.4797,-19.9806],[43.5005,-21.3339],[43.2389,-22.2825],[43.76,-23.4681],[43.6642,-24.3114],[44.0322,-25.0044],[45.2147,-25.5883],[47.0944,-24.9739],[47.5872,-23.7942],[47.9081,-22.4619],[48.6167,-20.3881],[49.3683,-18.3514],[49.4289,-17.2972],[49.7886,-16.8303],[49.6414,-15.5375],[50.2408,-15.9689],[50.4839,-15.2039],[50.2,-14.5703],[50.1019,-13.6275],[49.3569,-12.0908]]],[[[34.2167,31.3233],[33.7439,31.1333],[32.078,31.0825],[31.0983,31.6017],[30.3554,31.5028],[29.035,30.8242],[27.3454,31.3689],[25.8111,31.6108],[25.1739,31.5408],[24.9826,31.9665],[24.1175,32],[23.0851,32.3321],[23.1192,32.6198],[21.6278,32.9347],[20.5533,32.5533],[19.9419,31.9578],[20.1433,31.2103],[19.6178,30.4172],[18.9575,30.2764],[17.3672,31.0822],[15.62,31.4901],[15.1286,32.4097],[13.2511,32.9189],[12.2761,32.8481],[11.1743,33.2101],[10.1661,33.8292],[10.0071,34.1686],[11.1267,35.2419],[10.4562,36.1174],[11.1022,36.9044],[10.4072,36.7228],[10.2549,37.1796],[9.6592,37.3352],[8.8269,36.9796],[7.7731,36.8797],[6.4717,37.0899],[5.2426,36.6467],[4.7887,36.8939],[2.9002,36.7948],[2.5,36.5843],[1.1825,36.5122],[-1.0358,35.6769],[-1.9797,35.0733],[-4.6958,35.2089],[-5.3076,35.8858],[-5.9187,35.7906],[-6.7975,34.0621],[-8.5383,33.2505],[-9.2793,32.544],[-9.8092,31.4467],[-9.6635,30.0979],[-10.1381,29.4281],[-11.5119,28.3037],[-12.9025,27.9542],[-13.5485,26.7642],[-14.4833,26.1633],[-14.9009,24.6896],[-15.7794,23.9094],[-16.4981,22.3253],[-16.9569,21.8333],[-16.9237,21.1585],[-16.1968,20.2261],[-16.5117,19.3522],[-16.0719,18.4919],[-16.0394,17.7346],[-16.4676,16.6114],[-16.5464,15.7567],[-17.1292,14.9311],[-17.5328,14.7501],[-16.9478,14.3756],[-16.5133,13.3686],[-16.8171,13.3706],[-16.7178,12.3224],[-15.4293,11.6546],[-15.5011,11.3328],[-15.0254,10.7828],[-13.755,9.7889],[-13.1322,8.8619],[-13.285,8.4976],[-12.5042,7.3886],[-10.3719,6.1622],[-9.1428,5.0556],[-7.7134,4.357],[-5.8211,5.0389],[-4.0057,5.231],[-2.33,4.9139],[-2.0589,4.7308],[-0.7981,5.2078],[0.3097,5.7764],[0.92,5.7719],[1.8033,6.2575],[3.4131,6.4097],[4.4102,6.3599],[4.8725,6.0142],[5.4975,4.8058],[5.9358,4.3383],[7.0238,4.3869],[6.8997,4.6769],[7.6739,4.4969],[8.9318,4.5385],[8.9741,4.0998],[9.5431,3.8115],[9.9651,3.0852],[9.8134,1.9298],[9.3603,1.1747],[9.3095,-0.3428],[9.0078,-0.8139],[8.7044,-0.581],[9.2628,-1.8494],[11.7933,-4.5718],[12.4358,-6.0167],[12.2633,-6.1344],[12.8178,-6.9503],[13.3918,-8.3938],[13.0136,-9.0869],[13.8536,-11.0029],[13.7921,-11.7947],[13.3544,-12.6035],[12.5127,-13.4244],[12.2736,-14.7524],[11.7412,-15.8788],[11.7611,-17.9618],[12.4608,-18.9281],[13.4039,-20.8624],[14.5114,-22.5528],[14.4626,-24.1033],[14.7793,-24.804],[14.8378,-25.762],[15.2942,-27.3225],[15.6897,-27.9561],[16.8183,-29.0944],[17.2779,-30.3423],[18.1781,-31.6706],[18.2612,-32.6707],[17.8475,-32.8308],[18.8546,-34.1533],[20,-34.822],[20.8869,-34.3717],[21.7256,-34.3969],[22.1625,-34.0895],[23.6493,-33.9839],[24.8247,-34.2017],[25.6753,-33.7944],[26.4601,-33.7723],[27.9,-33.0406],[30.39,-30.8567],[31.2097,-29.5353],[32.3755,-28.5525],[32.8636,-27.0331],[32.8821,-25.5383],[35.1439,-24.57],[35.4956,-24.1022],[35.5353,-22.9503],[35.1179,-20.9744],[34.6669,-20.3912],[34.8907,-19.8604],[35.6704,-19.1219],[36.2528,-18.8914],[37.2206,-17.7501],[39.6986,-16.5369],[40.5783,-15.4989],[40.8453,-14.7342],[40.5258,-13.5153],[40.644,-12.7774],[40.3878,-11.3178],[40.5162,-10.4819],[39.8264,-9.9931],[39.3558,-8.7169],[39.5403,-7.0828],[38.7761,-6.0397],[39.2558,-4.6119],[39.4025,-4.6339],[40.1078,-3.2921],[40.1714,-2.78],[41.3153,-1.9581],[41.9728,-1.0203],[43.4886,0.65],[44.545,1.5519],[45.8942,2.3461],[46.7639,3.16],[48.0006,4.5231],[49.0408,6.1497],[49.8064,7.8828],[50.8385,9.4379],[50.8958,10.3122],[51.1894,10.5381],[51.2728,11.8394],[50.7694,11.9792],[50.0932,11.5146],[48.1257,11.1351],[47.3967,11.179],[46.4533,10.69],[45.7589,10.873],[44.9929,10.435],[44.2783,10.4478],[43.1572,11.5708],[42.7726,11.7312],[43.3709,11.9933],[43.078,12.829],[42.3738,13.2179],[41.1722,14.6307],[39.7678,15.0628],[39.2294,16.1275],[38.9453,17.3481],[38.589,18.0668],[37.5164,18.7244],[37.1858,20.0135],[36.8628,22.0758],[35.8449,22.7637],[35.5211,23.9803],[33.9324,26.6842],[33.4694,27.9964],[32.6187,28.984],[32.5633,29.9568],[33.2428,28.5544],[34.2544,27.7286],[34.9038,29.4867],[34.7536,29.9911],[34.6144,30.365],[34.2167,31.3233]]]]},"properties":{"CONTINENT":"Africa","SQKM":30001150.784}},
{"type":"Feature","geometry":{"type":"MultiPolygon","coordinates":[[[[-180,68.9801],[-180,65.0689],[-179.3267,65.6258],[-179.762,66.1169],[-178.7832,66.2057],[-178.5574,65.5142],[-176.0781,65.4703],[-175.9134,65.0164],[-173.1914,64.2544],[-172.129,65.0832],[-172.2881,65.5622],[-170.5311,65.6701],[-169.7072,66.1266],[-171.7261,66.9552],[-174.1253,66.9891],[-174.4941,66.3391],[-175.4636,67.7075],[-180,68.9801]]],[[[180,70.9972],[180,71.5359],[178.791,70.7964],[180,70.9972]]],[[[-180,71.5358],[-180,70.9972],[-177.4415,71.2293],[-180,71.5358]]],[[[34.9038,29.4867],[34.5722,28.0959],[35.0561,28.1128],[37.2355,25.1825],[37.1545,24.8401],[38.4469,23.7891],[39.1053,22.3772],[39.1058,21.28],[39.6607,20.4379],[40.7322,19.789],[41.6789,17.9494],[42.3071,17.4476],[42.7893,16.4608],[42.6939,15.7003],[43.2497,13.2057],[43.9499,12.5947],[44.8528,12.7292],[45.6319,13.3254],[46.6915,13.4281],[48.0189,14.0514],[48.6864,14.0375],[49.0943,14.5168],[51.2401,15.1876],[52.1892,15.6053],[52.5964,16.4772],[54.0926,17.0143],[55.0319,17.0147],[55.6439,17.8911],[56.3523,17.9412],[56.6558,18.5962],[57.8397,19.0283],[57.6876,19.7083],[58.0849,20.5572],[58.452,20.3585],[59.3443,21.442],[59.8092,22.2233],[58.6093,23.6328],[57.1713,23.9344],[56.6198,24.4776],[56.2697,25.636],[56.4714,26.1422],[54.7078,24.8014],[54.4275,24.2857],[53.8742,24.0597],[52.6772,24.1397],[52.086,23.956],[51.2824,24.3],[51.6119,25.0137],[51.5672,25.9077],[51.2449,26.1525],[50.7564,25.4996],[50.8631,24.7905],[49.9939,26.02],[49.952,26.85],[48.8389,27.6197],[47.9737,29.3944],[47.9435,30.0176],[48.9174,30.0407],[48.9289,30.387],[49.5789,30.0082],[50.038,30.2128],[50.9237,29.0646],[51.3253,28.0483],[52.4997,27.6086],[52.5736,27.3862],[53.8361,26.6992],[54.6903,26.5061],[56.3558,27.2003],[57.009,26.8714],[57.3191,25.7715],[58.163,25.539],[59.4905,25.4735],[61.4414,25.076],[64.6012,25.2521],[66.5398,25.5093],[66.6514,24.8285],[67.2354,24.7729],[67.3485,24.0779],[68.4085,23.6081],[68.659,23.1483],[69.7103,22.7428],[70.3939,22.9401],[70.1844,22.566],[68.9628,22.2478],[70.0158,21.1861],[70.9633,20.7024],[72.0033,21.1347],[72.2892,21.6108],[72.0389,21.939],[72.5639,22.1847],[72.5648,21.3751],[72.9341,20.7533],[72.6661,19.9186],[72.8941,18.4172],[73.4475,16.0586],[74.3475,14.563],[74.8169,12.8571],[75.6837,11.4406],[76.5758,8.8769],[77.5361,8.0719],[78.0621,8.3662],[78.1751,8.8639],[78.9975,9.2747],[79.3937,10.3183],[79.8581,10.2858],[79.8655,12.0283],[80.3487,13.3426],[80.0491,15.0556],[80.2628,15.6757],[81,15.8399],[81.248,16.3143],[82.3017,16.5831],[82.4753,17.2022],[84.0767,18.2666],[85.4079,19.6613],[86.4212,19.9849],[87.0256,20.6748],[86.828,21.1525],[88.1665,22.0897],[88.2575,21.5487],[88.7278,22.0231],[88.712,21.5623],[89.8837,21.8946],[90.6033,22.2744],[90.5983,23.1179],[90.946,22.5803],[91.4558,22.79],[91.7044,22.4805],[92.048,21.165],[93.1266,19.8393],[93.3711,20.0419],[93.9782,19.3626],[94.0384,18.8471],[94.6123,17.5474],[94.2019,16.0276],[95.3934,15.7125],[95.7533,16.1444],[96.7951,16.7269],[96.8947,17.3825],[97.3578,16.5256],[97.6814,16.5426],[97.7973,14.882],[98.0825,13.7614],[98.5803,13.1783],[98.7094,10.9162],[98.4607,10.7287],[98.5626,9.7342],[98.1939,8.554],[98.618,8.3822],[99.2598,7.6558],[100.3375,6.0278],[100.7572,3.8425],[101.3002,3.2544],[101.2857,2.8435],[103.3745,1.5335],[104.2933,1.4378],[103.8202,2.5759],[103.4325,2.9622],[103.4937,4.3087],[103.1219,5.3774],[101.5455,6.8485],[101.0255,6.8472],[100.1829,7.5156],[100.27,8.3112],[99.8454,9.3004],[99.2685,9.2186],[99.1508,10.3647],[100.0208,12.1946],[100.0594,13.416],[100.9763,13.4628],[100.8392,12.7014],[101.7566,12.705],[102.6415,12.175],[103.1014,11.3486],[103.5557,11.1553],[103.635,10.4902],[104.2513,10.5662],[105.1075,9.9453],[104.8992,9.8107],[104.8646,8.5592],[105.5339,9.1294],[106.1945,9.3685],[105.9772,9.9111],[106.5041,9.5507],[106.763,10.6806],[107.3289,10.4458],[109.0217,11.3623],[109.1766,12.4569],[109.4648,12.9006],[109.3044,13.8644],[108.8292,15.4219],[107.9697,16.3339],[107.1917,16.8747],[106.425,17.7417],[106.5099,17.9561],[105.6105,19.0039],[105.9568,19.923],[106.584,20.3425],[106.6467,21.0217],[107.35,21.0088],[108.3336,21.69],[109.6605,21.5057],[109.6629,20.9242],[110.4053,20.3033],[110.1536,20.9853],[110.7982,21.3996],[111.644,21.5268],[113.5527,22.187],[113.4793,23.0508],[113.9322,22.3544],[114.7782,22.814],[115.5625,22.6819],[116.4817,22.939],[116.9179,23.6592],[117.7633,23.9172],[117.9782,24.5413],[118.6575,24.575],[118.8686,25.0439],[119.6446,25.4165],[119.7661,26.4076],[121.1651,28.3828],[122.1196,29.8821],[120.9915,30.5689],[121.8917,30.9279],[120.854,31.7544],[121.8965,31.7415],[120.8858,32.975],[120.2487,34.3115],[119.1975,34.7697],[119.6475,35.5789],[120.6956,36.1407],[120.6829,36.3808],[122.5972,37.21],[122.1282,37.5526],[121.58,37.4246],[120.7371,37.835],[119.7672,37.1514],[118.9711,37.2708],[118.8378,38.1529],[118.0281,38.1672],[117.5536,38.5925],[117.7439,39.105],[118.9715,39.1569],[119.5264,39.8724],[120.4468,40.1961],[121.1775,40.9219],[122.2825,40.5336],[121.4317,39.5117],[121.6982,38.8611],[122.2878,39.3458],[124.2917,39.9278],[125.4219,39.308],[124.6701,38.1195],[125.4875,37.8375],[126.5824,37.772],[126.5444,36.1364],[126.2883,34.5903],[126.5972,34.2999],[128.0205,34.9864],[129.1369,35.1122],[129.4679,35.5437],[129.3425,37.2572],[128.3636,38.6252],[127.4478,39.1645],[127.5031,39.7128],[129.702,40.8307],[129.6642,41.5497],[131.8105,43.3256],[133.033,42.6844],[133.9054,42.8753],[135.1311,43.5034],[135.8919,44.4017],[137.664,45.7885],[139.284,47.8143],[140.1761,48.4501],[140.6583,50.0536],[140.4394,50.5369],[140.9083,51.6124],[141.4281,51.944],[141.1277,52.4608],[141.4148,53.2936],[139.7294,54.3074],[138.7315,54.3144],[138.5714,53.815],[137.3892,53.525],[137.8558,53.9619],[137.0633,54.1375],[136.8122,54.6502],[135.7309,54.5717],[135.1564,54.8612],[137.273,55.923],[138.1161,56.567],[140.5012,57.8265],[140.6848,58.2305],[142.5875,59.2378],[145.9084,59.4133],[148.9487,59.2587],[149.6403,59.7694],[151.3861,59.5711],[152.0453,59.1528],[151.3358,58.84],[155.1403,59.2041],[154.2315,59.8787],[156.6562,61.2097],[157.4866,61.8033],[160.355,61.9475],[159.7807,60.9435],[160.1389,60.5892],[162.4097,61.6735],[163.0056,61.5183],[163.2896,62.5505],[165.343,62.4786],[164.0971,62.2518],[164.015,61.3303],[158.2333,58.0194],[156.7869,57.7636],[156.9633,57.3955],[156.0005,56.7278],[155.5441,55.3036],[156.1023,52.8526],[156.693,50.8914],[157.9122,51.6433],[158.5267,52.2751],[158.6272,52.9311],[159.6147,53.2594],[159.9883,54.1217],[160.7283,54.5293],[161.7632,54.5228],[162.1517,54.8592],[161.7491,55.6275],[162.3939,56.3896],[163.0337,56.0179],[163.2108,56.7418],[162.7424,57.3594],[163.2823,57.74],[161.9398,58.0435],[163.1747,59.0702],[163.7393,60.0505],[165.1196,60.0855],[166.2549,60.3839],[166.1004,59.828],[168.3214,60.5947],[169.7033,60.4072],[170.3939,59.9585],[170.6177,60.3944],[172.0205,60.8467],[174.0791,61.8408],[177.05,62.578],[178.9608,62.3572],[179.6044,62.7003],[178.5946,63.4117],[178.6639,63.9437],[176.4183,64.8439],[178.745,64.6622],[180,65.0689],[180,68.9801],[176.119,69.8885],[173.166,69.8472],[170.4719,70.1342],[171.0225,69.023],[169.4737,68.8229],[167.7772,69.7761],[166.9332,69.4986],[162.2341,69.6472],[161.0083,69.0797],[160.9197,69.638],[159.6844,69.8939],[159.6803,70.6694],[157.9033,71.0458],[152.6105,70.8331],[151.6255,71.2958],[149.112,71.6951],[150.0178,71.9547],[147.2244,72.3283],[146.0797,71.791],[145.4708,72.5469],[140.6636,72.8936],[139.5414,72.4944],[139.9325,71.485],[138.0344,71.559],[137.747,71.2214],[135.7711,71.6378],[134.4525,71.3675],[132.51,71.8722],[131.5358,70.8778],[129.8058,71.1055],[128.2568,72.1114],[126.7201,72.3875],[127.1312,71.848],[124.7069,72.6286],[121.8658,72.968],[121.0144,72.93],[118.4711,73.2017],[118.6344,73.5717],[115.2433,73.6933],[113.1353,73.4482],[110.2004,74.0244],[110.1022,73.5083],[107.6822,73.1669],[106.0676,73.2742],[108.1897,73.6703],[111.7867,74.664],[113.6104,75.2875],[113.2661,76.258],[111.1286,76.7514],[107.9168,76.7273],[104.1233,77.0896],[105.8719,77.5636],[103.2033,77.6536],[101.1947,77.0915],[101.0341,76.5186],[95.7697,75.9278],[89.2528,75.5031],[86.7107,74.6119],[86.7561,73.9008],[80.5186,73.5735],[80.7065,72.5461],[83.6264,71.6254],[83.1502,71.238],[83.7455,70.46],[82.2572,71.2567],[83.3187,71.6726],[81.653,71.708],[78.5792,72.4003],[76.2544,71.6086],[78.2604,71.2603],[75.2673,71.3612],[75.7603,72.2937],[73.0347,71.4005],[74.3269,70.5303],[73.5158,69.7429],[73.7485,69.1712],[75.4833,69.2536],[77.6922,68.8711],[78.1489,68.2519],[77.1226,67.7635],[77.3208,68.5184],[76.611,68.9592],[74.4897,68.7192],[74.74,67.6917],[72.3433,66.2982],[70.4247,66.3294],[69.1146,66.6072],[69.8919,66.8319],[71.551,66.6443],[73.2044,67.8546],[73.6518,68.4928],[72.4794,69.1822],[72.5911,71.1553],[71.8032,71.4917],[72.8792,72.2937],[71.5833,72.9058],[68.9764,72.6943],[68.4655,71.8189],[66.9033,71.2869],[67.3379,70.7217],[66.9765,69.6968],[69.1098,68.8694],[68.265,68.1875],[67.1187,68.8349],[64.8326,69.1521],[65.6523,68.5573],[65.4342,67.9198],[66.1089,67.4812],[65.2236,67.1461],[65.115,66.929],[63.4086,66.4528],[62.8496,65.871],[61.4317,65.4239],[61.3905,65.3811],[59.6507,64.778],[59.6597,63.9667],[59.5776,63.9329],[59.226,63.0355],[59.6429,62.5184],[59.2628,61.2133],[59.4736,60.8096],[58.311,59.4604],[59.1823,59.1637],[59.4491,58.488],[58.9256,58.2005],[58.8564,58.2058],[58.8569,57.73],[58.0492,57.6074],[58.0105,57.0767],[57.873,57.0665],[57.2217,56.851],[57.4478,56.1354],[59.2924,56.1341],[58.615,54.949],[58.0222,55.2779],[57.8436,55.3022],[57.153,54.8532],[57.9703,54.3882],[59.9757,54.7865],[59.7469,54.2114],[59.7367,54.138],[58.8707,53.7529],[58.8049,52.4361],[58.8396,52.4417],[60.1442,52.4237],[60.0875,51.8669],[60.1375,51.8649],[61.4908,51.425],[61.3394,50.7767],[61.2778,50.7689],[58.95,50.6822],[58.3144,51.15],[58.2119,51.0967],[57.2661,51.0181],[57.1274,51.0847],[56.53,51.0747],[55.6753,50.5375],[55.5378,50.6128],[53.7517,51.2142],[53.6119,51.3012],[51.677,51.4557],[50.759,51.7214],[49.8292,51.13],[49.5847,51.1083],[48.6975,50.5919],[48.9147,50.0328],[48.4467,49.8174],[47.6274,50.4574],[46.9314,49.8658],[47.0437,49.1036],[46.6311,48.6638],[46.5561,48.5239],[47.1446,47.8121],[48.0373,47.7826],[49.0272,46.7761],[48.4944,46.6672],[50.0385,45.8585],[48.6862,44.7543],[49.0386,43.8154],[49.7606,42.7108],[47.9155,41.225],[47.2746,41.3211],[46.7744,41.7956],[45.638,42.2202],[45.7603,42.4779],[44.8083,42.6653],[44.751,42.6929],[43.9119,42.5833],[42.8552,43.1778],[41.565,43.2322],[41.2136,43.3789],[40.1267,43.5722],[40.0812,43.551],[40.003,43.3793],[41.4196,42.7417],[41.7739,41.8155],[41.385,41.3737],[40.15,40.9203],[39.4142,41.1067],[38.3558,40.9103],[36.864,41.3451],[36.4315,41.2421],[35.9731,41.7322],[35.2867,41.7131],[34.9789,42.0919],[33.3386,42.0199],[32.2775,41.7194],[31.2335,41.0893],[29.1335,41.2128],[29.5107,40.7315],[29.0558,40.3668],[26.7043,40.3789],[26.1974,40.0028],[26.131,39.453],[26.6447,39.2631],[26.9472,38.4417],[26.2758,38.2644],[27.2437,37.9776],[27.255,36.965],[28.3248,37.0382],[29.6772,36.1183],[30.5039,36.3205],[30.6944,36.8816],[32.0647,36.5164],[32.6697,36.0392],[33.9886,36.2778],[34.5657,36.7719],[35.3471,36.545],[36.0112,36.9232],[35.9836,34.5275],[35.6694,34.3125],[34.9532,32.8234],[34.7083,31.9476],[34.2167,31.3233],[34.6144,30.365],[34.7536,29.9911],[34.9038,29.4867]]],[[[120.0292,-9.3833],[118.9332,-9.5594],[119.6298,-9.7722],[120.1623,-10.2304],[120.8143,-9.9853],[120.0292,-9.3833]]],[[[127.2531,-8.4775],[125.8564,-8.4803],[123.6636,-9.6456],[123.4883,-10.3164],[124.4085,-10.1735],[125.4044,-9.2683],[126.4746,-8.9511],[127.2531,-8.4775]]],[[[116.5491,-8.775],[116.3766,-8.206],[116.0011,-8.8969],[116.5491,-8.775]]],[[[124.5483,-8.1339],[124.4222,-8.4715],[125.1262,-8.3498],[124.5483,-8.1339]]],[[[118.2553,-8.3458],[117.8472,-8.7106],[117.1927,-8.3636],[116.7525,-9.0117],[117.0478,-9.1108],[119.0582,-8.6513],[118.9999,-8.3158],[118.2553,-8.3458]]],[[[122.9797,-8.1474],[122.2883,-8.6444],[121.5136,-8.6067],[120.2654,-8.2701],[119.8939,-8.8503],[121.7649,-8.891],[122.8464,-8.5915],[122.9797,-8.1474]]],[[[115.5022,-8.1786],[114.5016,-8.0931],[115.1731,-8.7751],[115.5022,-8.1786]]],[[[126.7193,-7.6717],[125.9722,-7.6586],[125.7722,-8.0063],[126.7193,-7.6717]]],[[[138.603,-8.2553],[139.0367,-7.6139],[138.8069,-7.3832],[138.0182,-7.6252],[137.6449,-8.4351],[138.603,-8.2553]]],[[[131.74,-7.2088],[131.0843,-7.8659],[131.3026,-8.0283],[131.74,-7.2088]]],[[[113.9914,-6.8803],[112.8388,-6.9088],[112.7169,-7.1488],[113.5039,-7.2253],[113.9914,-6.8803]]],[[[134.2005,-6.9208],[134.5157,-6.5925],[134.1209,-6.1704],[134.2005,-6.9208]]],[[[106.1633,-6.0142],[105.8797,-6.0775],[105.4834,-6.8692],[106.5451,-7.0681],[106.5672,-7.4169],[108.4605,-7.8075],[108.88,-7.6411],[110.718,-8.1972],[112.6467,-8.4342],[113.3164,-8.3075],[114.3678,-8.6478],[114.4692,-7.8778],[114.038,-7.6119],[113.2991,-7.7922],[112.8479,-7.6007],[112.5603,-6.9122],[112.1266,-6.9136],[110.7298,-6.4592],[110.3354,-6.9694],[108.6208,-6.7742],[108.3297,-6.2793],[107.6669,-6.2542],[107.0136,-5.9246],[106.1633,-6.0142]]],[[[134.5691,-5.4294],[134.3023,-6.0228],[134.76,-5.8933],[134.5691,-5.4294]]],[[[122.7335,-4.6433],[122.3742,-4.7559],[122.2847,-5.3817],[122.6028,-5.4227],[122.7335,-4.6433]]],[[[123.2128,-4.6975],[122.9143,-4.4717],[122.7348,-5.2545],[122.5686,-5.5069],[123.2128,-5.2724],[123.2128,-4.6975]]],[[[126.9939,-3.145],[126.0089,-3.1843],[126.693,-3.8349],[127.2414,-3.595],[126.9939,-3.145]]],[[[129.7961,-2.9079],[128.1719,-2.8569],[128.4047,-3.4204],[129.5161,-3.2975],[130.83,-3.8728],[130.338,-2.9786],[129.7961,-2.9079]]],[[[107.8328,-2.535],[107.6121,-3.2121],[108.2933,-2.8538],[107.8328,-2.535]]],[[[130.1918,-2.0638],[130.323,-1.6811],[129.7518,-1.8568],[130.1918,-2.0638]]],[[[124.9553,-1.701],[124.3951,-1.6628],[124.4053,-2.0161],[125.32,-1.8874],[124.9553,-1.701]]],[[[106.0908,-1.7717],[105.3451,-1.6561],[105.1376,-2.0758],[105.7473,-2.1316],[105.9189,-2.7247],[106.7178,-3.0983],[106.7817,-2.5919],[106.3862,-2.4844],[106.0908,-1.7717]]],[[[98.9292,-0.9503],[98.5935,-1.1837],[99.2822,-1.7394],[98.9292,-0.9503]]],[[[135.4791,-0.6722],[135.8332,-1.1349],[136.1939,-1.0622],[135.4791,-0.6722]]],[[[133.575,-0.7539],[132.7132,-0.3671],[131.2556,-0.8228],[131.2741,-1.3842],[131.8824,-1.6422],[132.0412,-2.0857],[133.2458,-2.4175],[132.7003,-2.8125],[132.195,-2.6803],[133.249,-4.071],[133.6368,-3.489],[135.2047,-4.4597],[135.9283,-4.4986],[138.0733,-5.4244],[138.398,-6.2731],[138.9093,-6.8436],[138.6746,-7.1929],[139.0933,-7.5911],[138.9103,-8.2983],[139.9158,-8.1147],[141.12,-9.231],[142.2065,-9.165],[142.6389,-9.3347],[143.4046,-8.9681],[142.9434,-8.3364],[143.958,-7.9786],[144.4086,-7.5199],[146.0897,-8.0911],[147.6162,-9.9878],[150.6779,-10.5785],[150.6429,-10.281],[149.722,-9.85],[149.1378,-9.0067],[148.5358,-9.0051],[148.0072,-8.0667],[147.3345,-7.5043],[146.9614,-6.7472],[147.8697,-6.6578],[147.4806,-5.9772],[145.7245,-5.4281],[145.7355,-4.8028],[144.5137,-3.8222],[144.0169,-3.8106],[143.4427,-3.4119],[141.8923,-2.971],[141.2019,-2.6187],[139.7564,-2.3517],[137.8458,-1.4744],[137.1311,-1.7928],[137.2359,-2.0572],[136.4094,-2.2175],[135.4919,-3.3583],[135.0042,-3.3414],[134.6572,-2.5747],[134.4629,-2.8613],[134.1597,-2.3194],[134.2793,-1.3493],[133.9814,-0.73],[133.575,-0.7539]]],[[[130.8774,-0.0192],[130.2837,-0.1062],[131.2514,-0.3903],[130.8774,-0.0192]]],[[[97.5239,1.4233],[97.1147,1.3933],[97.8864,0.6426],[97.5239,1.4233]]],[[[125.1417,1.4214],[124.9711,1.6947],[124.5767,1.1839],[123.8392,0.8294],[122.8463,0.8147],[120.8286,1.3238],[120.5644,0.7742],[120.0221,0.6922],[119.7781,0.2297],[119.7364,-0.6522],[119.2917,-1.399],[119.3358,-1.9729],[118.8886,-2.8932],[118.9257,-3.5732],[119.4894,-3.4891],[119.5953,-4.5664],[119.3549,-5.4001],[119.7716,-5.7085],[120.3289,-5.5121],[120.3887,-3.2182],[120.2019,-2.9633],[120.7719,-2.6125],[121.0761,-2.7589],[120.8811,-3.5356],[121.6202,-4.1564],[121.48,-4.6603],[122.8993,-4.3897],[122.1954,-3.5681],[122.3075,-2.9026],[121.5387,-1.9328],[122.3771,-1.4897],[122.8406,-0.9064],[123.3814,-1.0044],[123.2619,-0.5767],[121.4626,-0.8907],[121.0664,-1.4278],[120.6786,-1.3976],[120.0017,-0.2706],[120.5492,0.5361],[121.0767,0.41],[123.068,0.5096],[123.6458,0.2811],[124.4414,0.4553],[125.1417,1.4214]]],[[[127.8708,1.8065],[127.4011,1.2124],[127.6144,0.8528],[127.6639,-0.2151],[128.4018,-0.8882],[127.8931,-0.0319],[127.9575,0.4764],[128.8536,0.2415],[128.2125,0.8054],[128.6975,1.1019],[128.3747,1.5078],[127.8433,0.8024],[127.8708,1.8065]]],[[[95.7386,5.5853],[95.2336,5.5701],[95.5311,4.6828],[96.5583,3.7383],[96.7878,3.7425],[97.5854,2.8792],[97.6594,2.3958],[98.5228,1.9344],[99.1351,0.2685],[99.7436,-0.0344],[100.3353,-0.8742],[100.8329,-2.1428],[102.3378,-4.015],[104.7143,-5.9181],[104.5432,-5.5081],[105.1416,-5.7953],[105.2596,-5.449],[105.7289,-5.8983],[106.06,-3.2689],[105.6064,-2.3933],[104.7244,-2.3844],[104.4128,-1.1317],[103.3608,-0.7022],[103.8112,-0.0035],[103.3403,0.5333],[102.2355,0.9781],[102.1355,1.3733],[101.3639,1.8008],[101.058,2.2836],[100.8243,2.0272],[99.2528,3.5147],[98.2705,4.1425],[97.5148,5.2494],[96.5814,5.2072],[95.7386,5.5853]]],[[[116.7838,6.5842],[116.7664,7.0231],[115.5742,5.1792],[115.05,4.7983],[113.998,4.5994],[113.9261,4.2442],[112.953,3.1289],[111.6689,2.8476],[111.0036,1.5514],[109.9818,1.6823],[109.6486,2.0734],[109.0769,1.5464],[108.8455,0.8106],[109.1655,0.1064],[109.2903,-0.8783],[110.0455,-1.3119],[110.2832,-3.0136],[111.8258,-3.0258],[111.8059,-3.5389],[112.5317,-3.4447],[113.0647,-2.9939],[113.6096,-3.4261],[114.4811,-3.4986],[114.6086,-4.1292],[115.9894,-3.5739],[116.604,-2.1899],[116.539,-1.4738],[117.02,-1.2072],[117.4448,-0.524],[117.7422,0.7397],[119.0019,0.9671],[117.9185,1.8235],[118.0976,2.3018],[117.2754,3.22],[117.2053,3.6135],[117.8314,3.7182],[117.4025,4.1506],[118.6435,4.4486],[118.1323,4.8536],[119.2144,5.1375],[119.2758,5.345],[117.7822,5.915],[117.6767,6.4914],[117.2493,6.9451],[116.7838,6.5842]]],[[[126.0175,9.2658],[125.4403,9.8092],[125.5378,9.0647],[124.7733,8.9701],[124.7089,8.4742],[124.224,8.2125],[123.3786,8.7253],[122.991,8.2017],[122.3511,8.0386],[121.8969,7.0772],[122.1866,6.9501],[122.5478,7.7303],[122.7803,7.4714],[123.4589,7.8106],[124.2661,7.3631],[123.993,7.0239],[124.3242,6.1146],[125.4056,5.5633],[125.7028,6.025],[125.3986,6.8031],[125.8098,7.3617],[126.0767,6.8436],[126.5589,7.1994],[126.4658,8.2253],[126.0175,9.2658]]],[[[80.2747,9.775],[79.9191,8.9376],[79.7839,7.7506],[79.8591,6.7974],[80.1844,6.0347],[80.5896,5.9181],[81.6611,6.44],[81.8289,7.471],[81.3633,8.4822],[80.2747,9.775]]],[[[124.4672,10.0583],[123.8612,9.6353],[124.3572,9.6236],[124.4672,10.0583]]],[[[123.2064,9.9839],[123.5639,10.7942],[122.9525,10.8944],[122.8569,10.0951],[122.4539,9.9749],[122.5416,9.4837],[123.1293,9.045],[123.2064,9.9839]]],[[[123.3521,9.4167],[124.02,10.387],[124.0092,11.2712],[123.374,9.9907],[123.3521,9.4167]]],[[[119.5086,11.3356],[119.3135,10.5842],[119.0065,10.4393],[117.1786,8.333],[117.9989,8.8775],[119.7159,10.5109],[119.5086,11.3356]]],[[[124.5817,11.3096],[124.7647,10.1964],[125.2568,10.3778],[124.9503,11.4217],[124.5817,11.3096]]],[[[122.2294,11.7978],[121.9098,10.4446],[123.1236,11.1657],[122.2294,11.7978]]],[[[125.1783,12.5611],[124.2578,12.5511],[125.0421,11.7279],[125.2694,11.1281],[125.6406,11.3515],[125.1783,12.5611]]],[[[123.8783,12.2169],[123.2457,12.6058],[123.1441,11.9349],[123.8783,12.2169]]],[[[53.7669,12.6222],[53.7553,12.3086],[54.4478,12.5762],[53.7669,12.6222]]],[[[120.7216,13.4778],[120.8017,12.7249],[121.2206,12.2306],[121.5579,12.6015],[121.5022,13.1489],[120.7216,13.4778]]],[[[121.2567,18.5661],[120.5728,18.4681],[120.4261,16.1691],[119.7857,16.3185],[120.0873,14.7835],[120.9911,14.5492],[120.5922,14.2311],[121.2794,13.5939],[121.7019,13.9592],[122.5964,13.1636],[122.561,13.9366],[123.409,13.0442],[124.0964,12.5536],[124.1773,13.0729],[123.58,13.7183],[123.925,13.7892],[122.4733,14.3406],[121.9105,14.0092],[121.3764,15.315],[121.5561,15.8917],[122.1398,16.2523],[122.533,17.1014],[122.1465,17.8017],[122.3425,18.3106],[121.2567,18.5661]]],[[[110.7158,20.0689],[109.3003,19.9192],[108.6283,19.2803],[108.6871,18.5056],[109.5667,18.1689],[110.5255,18.8008],[111.0215,19.6383],[110.7158,20.0689]]],[[[121.7347,25.1389],[121.0017,25.0017],[120.1112,23.6171],[120.0565,23.156],[120.699,21.9433],[121.453,23.3272],[121.8397,24.4764],[121.7347,25.1389]]],[[[131.2142,33.5955],[130.7027,33.9359],[129.5701,33.2095],[130.6024,32.7155],[130.1625,32.0069],[130.2311,31.2475],[130.6682,30.9996],[131.3345,31.3692],[131.9852,32.9039],[131.7304,33.5747],[131.2142,33.5955]]],[[[134.2236,34.3444],[133.5231,33.9628],[132.8969,34.1061],[132.308,33.4794],[132.483,32.8955],[133.0075,32.7675],[133.2815,33.3629],[134.1866,33.242],[134.7447,33.8174],[134.2236,34.3444]]],[[[34.12,35.4008],[33.0028,35.3656],[32.2753,35.0404],[33.03,34.6578],[34.0853,34.9617],[34.12,35.4008]]],[[[141.2708,41.3425],[140.7086,40.8397],[140.3561,41.2475],[139.7533,39.858],[140.0228,39.3786],[139.4262,38.1546],[138.2711,37.1842],[137.3025,36.7464],[136.7377,37.3249],[136.6491,36.6558],[135.7136,35.4764],[134.9165,35.6351],[132.63,35.4078],[130.8844,33.9344],[132.0486,33.8953],[132.4087,34.3646],[133.1903,34.2775],[134.6511,34.7775],[135.4579,34.5653],[135.0647,33.8755],[135.7722,33.455],[136.8475,34.7467],[138.1658,34.5975],[138.5669,35.0897],[138.8504,34.5932],[139.2839,35.2894],[140.1041,35.5364],[139.8382,34.895],[140.8372,35.7433],[140.6367,36.5305],[140.9745,36.9847],[141.0558,38.338],[141.5375,38.2989],[141.6361,38.9949],[142.0697,39.5467],[141.2708,41.3425]]],[[[28.0131,41.9822],[26.6214,41.9731],[26.5703,41.6114],[26.6364,41.4135],[26.1202,40.7477],[26.0595,40.7343],[26.0447,40.7358],[26.8258,40.5916],[27.5054,40.9813],[28.6278,40.9605],[29.0889,41.2462],[28.2428,41.5089],[28.0131,41.9822]]],[[[143.7265,44.116],[141.9711,45.4864],[141.5815,45.2389],[141.6703,44.0289],[141.2082,43.1424],[139.8636,42.6532],[140.199,41.3973],[140.7212,41.8099],[140.4707,42.5708],[140.9902,42.297],[141.6234,42.6146],[143.2431,41.9247],[143.8928,42.8492],[145.5208,43.1703],[144.7916,43.9177],[143.7265,44.116]]],[[[148.8354,45.3437],[148.7104,45.5226],[147.1119,44.7939],[148.8354,45.3437]]],[[[142.8165,54.2956],[142.6811,53.5168],[141.7701,53.3678],[141.648,51.8867],[142.2537,51.1525],[142.1212,49.4586],[141.8537,48.7571],[142.1877,47.954],[141.8137,46.5904],[142.0876,45.8917],[142.5264,46.6825],[143.3562,46.5599],[142.5353,48.0054],[143.0339,49.1572],[144.2758,49.2614],[143.125,51.9605],[143.2878,53.1418],[142.8165,54.2956]]],[[[71.0469,73.5],[69.8664,73.0328],[71.6767,73.1769],[71.0469,73.5]]],[[[127.2964,73.5172],[126.3034,72.5028],[129.0979,73.1283],[127.2964,73.5172]]],[[[124.6044,73.7286],[123.5469,73.6969],[123.0881,72.9136],[124.7788,72.6623],[126.1658,72.3019],[126.243,73.5519],[124.6044,73.7286]]],[[[142.155,73.89],[140.0092,73.3544],[143.5058,73.2303],[142.155,73.89]]],[[[147.0183,75.3347],[148.2341,74.7922],[150.4733,75.0905],[147.0183,75.3347]]],[[[139.1908,76.0722],[137.4128,75.9379],[136.8607,75.3521],[139.2316,74.66],[144.3483,75.0444],[145.3821,75.5155],[143.9006,75.8372],[139.1908,76.0722]]],[[[102.9728,79.3314],[101.2422,79.2247],[99.4308,77.9544],[105.3651,78.5049],[102.9728,79.3314]]],[[[97.615,80.1655],[95.0069,80.1003],[93.7176,79.5917],[95.0078,79.0403],[98.56,78.7761],[99.9425,78.9607],[100.068,79.7727],[97.615,80.1655]]],[[[95.9586,81.2172],[93.4683,81.0403],[91.5408,80.2831],[93.6783,79.9941],[95.5647,80.1925],[97.1589,80.2336],[97.9658,80.7101],[95.9586,81.2172]]]]},"properties":{"CONTINENT":"Asia","SQKM":44851729.022}},
{"type":"Feature","geometry":{"type":"MultiPolygon","coordinates":[[[[145.0804,-40.8103],[144.6858,-41.2166],[145.2803,-42.1811],[145.26,-42.6124],[146.0383,-43.4981],[146.9375,-43.6006],[147.955,-42.7175],[148.3283,-40.9954],[146.1932,-41.1569],[145.0804,-40.8103]]],[[[137.585,-35.6508],[136.5811,-35.7694],[137.4554,-36.0853],[137.585,-35.6508]]],[[[130.5733,-11.3494],[130.9589,-11.9389],[131.5371,-11.4669],[131.2715,-11.1903],[130.5733,-11.3494]]],[[[142.5163,-10.8583],[142.1229,-11.3726],[141.5924,-12.5545],[141.6832,-13.281],[141.4688,-13.8281],[141.6655,-15.0265],[141.4266,-16.0744],[140.8333,-17.4519],[139.9793,-17.6972],[139.2605,-17.3425],[139.0311,-16.9149],[138.1948,-16.7074],[137.7377,-16.2517],[136.7658,-15.9044],[135.3727,-14.7289],[135.8969,-14.1428],[135.8915,-13.3385],[136.9784,-12.3582],[136.4511,-11.9542],[135.7355,-12.2808],[135.7535,-11.9351],[135.0839,-12.2667],[134.2066,-12.0617],[133.7994,-11.7183],[132.7263,-11.5195],[132.3405,-11.1301],[131.7643,-11.3067],[132.6915,-11.6582],[132.6385,-12.0786],[132.0627,-12.3091],[131.0243,-12.1496],[130.1407,-12.9259],[130.2644,-13.3253],[129.8289,-13.5169],[129.3585,-14.4137],[129.8016,-14.864],[128.1694,-14.7028],[126.9558,-13.7282],[126.6005,-14.2297],[126.1467,-14.13],[125.9089,-14.6453],[125.6183,-14.2224],[125.1829,-14.9483],[124.4573,-15.4783],[124.4179,-16.3475],[123.6032,-16.1563],[123.5534,-17.515],[122.9917,-16.3897],[122.1439,-17.3631],[122.3143,-18.1565],[121.8898,-18.4737],[121.2336,-19.4385],[119.6014,-20.0661],[117.3172,-20.7281],[116.7075,-20.6492],[115.4519,-21.5178],[114.6362,-21.8592],[114.1539,-22.5278],[114.013,-21.8568],[113.6564,-22.6047],[113.743,-23.5272],[113.3841,-24.2308],[114.2581,-25.8478],[114.0693,-26.4617],[113.2811,-26.3994],[114.0728,-27.4511],[114.1543,-28.091],[114.978,-29.4878],[115.0473,-30.5047],[115.74,-31.8681],[115.7143,-33.2422],[114.9971,-33.5241],[115.0089,-34.2624],[116.4605,-34.9996],[118.0817,-34.9939],[119.2086,-34.5044],[120.0283,-33.9256],[122.0137,-33.8311],[123.5408,-33.9058],[124.091,-33.1621],[125.9723,-32.2667],[127.3347,-32.2669],[128.9525,-31.7033],[131.1152,-31.4775],[132.1959,-32.0269],[133.6059,-32.0981],[134.2764,-32.5885],[134.3295,-33.2028],[134.7075,-33.1772],[135.2611,-34.0065],[135.3965,-34.644],[136.0046,-34.9918],[135.9369,-34.5369],[137.1421,-33.7138],[137.8163,-32.5669],[138.0469,-33.1294],[137.6029,-33.884],[137.4541,-34.8969],[136.8315,-35.2518],[137.6744,-35.1817],[138.0923,-34.1349],[138.4961,-34.7289],[138.0932,-35.6192],[138.9911,-35.5574],[139.8608,-36.6608],[139.7514,-37.1997],[140.3559,-37.8617],[141.4541,-38.3725],[142.3793,-38.3639],[143.543,-38.8592],[144.9755,-37.8919],[146.3855,-39.1467],[146.4693,-38.8056],[148.3091,-37.8217],[149.4572,-37.7833],[149.9716,-37.5222],[150.1625,-35.9406],[151.4546,-33.3168],[152.5297,-32.4036],[153.075,-30.9486],[153.0326,-30.514],[153.5915,-28.2739],[153.2561,-27.4797],[152.9078,-25.2889],[151.9444,-24.2356],[150.8672,-23.505],[150.8191,-22.7319],[150.079,-22.1628],[149.6995,-22.4525],[149.2147,-21.08],[148.7291,-20.7175],[148.7689,-20.2325],[146.448,-19.0711],[146.0233,-18.2689],[146.1043,-17.6917],[145.4115,-16.4702],[145.3158,-14.9456],[144.4762,-14.1631],[143.7822,-14.4133],[143.5308,-13.7564],[143.5142,-12.8792],[142.8598,-11.8332],[142.5163,-10.8583]]]]},"properties":{"CONTINENT":"Australia","SQKM":7701651.076}},
{"type":"Feature","geometry":{"type":"MultiPolygon","coordinates":[[[[180,-16.1728],[178.4779,-16.7658],[178.6943,-16.9969],[179.2705,-16.6913],[179.9462,-16.7456],[180,-16.1728]]],[[[172.8614,-40.5078],[172.1139,-40.88],[171.1517,-42.5604],[169.725,-43.5711],[168.3723,-44.0406],[167.2283,-44.9308],[166.4647,-45.8394],[166.7219,-46.2125],[167.5969,-46.1664],[169.0579,-46.6768],[169.7019,-46.5581],[170.5958,-45.8929],[171.3556,-44.2855],[172.8662,-43.9029],[172.838,-43.1481],[173.2855,-42.9581],[174.2897,-41.7376],[174.3227,-41.0144],[173.0777,-41.2943],[172.8614,-40.5078]]],[[[173.0389,-34.4369],[172.7391,-34.4356],[173.0897,-35.2142],[173.8261,-36.0325],[174.4422,-36.1697],[174.5508,-37.0772],[174.9402,-38.1011],[174.5877,-38.8289],[173.7953,-39.4219],[174.9741,-39.9208],[175.238,-40.3297],[174.6515,-41.3308],[175.3182,-41.6154],[176.0808,-41.1292],[177.1072,-39.6608],[176.8986,-39.4422],[177.8211,-39.1039],[178.564,-37.7167],[178.018,-37.5508],[177.1594,-38.0133],[175.9944,-37.6389],[175.8408,-36.7542],[175.3569,-36.48],[175.5791,-37.2444],[174.8083,-36.8053],[174.32,-35.2328],[173.2669,-35.0171],[173.0389,-34.4369]]],[[[164.2525,-20.2958],[164.1726,-20.5035],[165.2973,-21.5825],[166.9294,-22.3975],[166.9509,-22.0936],[165.6308,-21.2797],[165.2233,-20.7653],[164.2525,-20.2958]]],[[[178.2805,-17.3872],[177.5147,-17.5067],[177.3315,-18.1176],[177.8641,-18.2639],[178.6933,-18.025],[178.2805,-17.3872]]],[[[166.8028,-15.1575],[166.7636,-15.6446],[167.2334,-15.5253],[166.8028,-15.1575]]],[[[161.5453,-10.2767],[161.8822,-10.7686],[162.3829,-10.8295],[161.5453,-10.2767]]],[[[159.9334,-9.4315],[159.8343,-9.7992],[160.6503,-9.93],[160.3569,-9.4153],[159.9334,-9.4315]]],[[[160.9443,-8.8165],[160.8082,-9.0626],[161.379,-9.6319],[160.9443,-8.8165]]],[[[159.8512,-8.3319],[158.4875,-7.5542],[159.0139,-8.0872],[159.8512,-8.3319]]],[[[157.3193,-7.2838],[156.5348,-6.6093],[156.9321,-7.2164],[157.3193,-7.2838]]],[[[154.8824,-5.5433],[154.7506,-5.9492],[155.3399,-6.7415],[155.9148,-6.5208],[154.8824,-5.5433]]],[[[152.2352,-4.2072],[151.5369,-4.1819],[151.6877,-4.865],[151.0114,-5.4089],[149.2208,-5.6061],[148.3581,-5.4926],[148.3898,-5.778],[149.6347,-6.3081],[150.4686,-6.2761],[152.1475,-5.3639],[152.3861,-4.7933],[152.2352,-4.2072]]],[[[151.0866,-2.7503],[152.2859,-3.5761],[152.901,-4.8229],[153.133,-4.2658],[152.0551,-3.2539],[151.0866,-2.7503]]],[[[-155.0056,19.3289],[-154.7978,19.5381],[-155.8465,20.2776],[-156.049,19.7351],[-155.6631,18.9255],[-155.0056,19.3289]]]]},"properties":{"CONTINENT":"Oceania","SQKM":429107.61696}},
{"type":"Feature","geometry":{"type":"MultiPolygon","coordinates":[[[[-68.4049,-54.9553],[-69.931,-55.0787],[-67.9675,-55.5919],[-68.7765,-55.1768],[-68.4049,-54.9553]]],[[[-72.9111,-53.4295],[-73.577,-53.7527],[-72.1423,-53.8045],[-72.9111,-53.4295]]],[[[-69.1517,-52.6844],[-69.4172,-52.4594],[-70.4568,-53.0372],[-70.0717,-54.0764],[-68.9932,-54.431],[-70.9183,-54.1411],[-71.9521,-54.6531],[-68.2456,-54.8169],[-66.4461,-55.0517],[-65.1401,-54.6533],[-66.2417,-54.5378],[-67.3592,-54.0289],[-69.1517,-52.6844]]],[[[-59.2117,-51.4082],[-60.2558,-51.4811],[-60.5986,-52.2422],[-59.2117,-51.4082]]],[[[-58.754,-51.3264],[-59.7161,-52.1174],[-59.0721,-52.2315],[-57.7332,-51.6944],[-58.754,-51.3264]]],[[[-74.4433,-49.3067],[-74.5412,-48.712],[-75.4658,-49.3162],[-74.7628,-50.0556],[-74.4433,-49.3067]]],[[[-73.886,-41.8228],[-74.4058,-43.246],[-73.7147,-43.3703],[-73.393,-42.3074],[-73.886,-41.8228]]],[[[-51.8828,-1.4747],[-51.2768,-1.02],[-51.5496,-0.6565],[-51.8828,-1.4747]]],[[[-49.7133,-0.2278],[-50.4138,-0.1085],[-50.7833,-0.6636],[-50.5795,-1.7987],[-49.813,-1.8144],[-48.8451,-1.4582],[-48.4103,-0.2621],[-49.7133,-0.2278]]],[[[-91.2554,0],[-91.1611,-0.6818],[-90.8108,-0.7325],[-91.2554,0]]],[[[-49.6361,0.2275],[-50.3813,0.1986],[-49.9931,-0.0733],[-49.6361,0.2275]]],[[[-77.8897,7.2289],[-77.3404,6.5674],[-77.4889,6.1853],[-77.4256,4.1787],[-77.1411,3.6658],[-77.7811,2.7564],[-78.6869,2.1935],[-78.5875,1.7672],[-79.0503,1.6318],[-78.8893,1.2384],[-80.0491,0.8312],[-80.0458,0.1306],[-80.9128,-1.0365],[-80.7322,-1.9142],[-80.975,-2.2169],[-80.2522,-2.7332],[-79.7489,-2.4847],[-79.9563,-3.2078],[-80.8172,-3.7468],[-81.3551,-4.6875],[-80.8729,-5.6446],[-81.1747,-6.0867],[-80.1164,-6.6454],[-78.772,-8.5864],[-77.6477,-11.2978],[-77.2008,-11.6629],[-76.1815,-13.4579],[-76.2996,-13.9027],[-75.9339,-14.6519],[-75.0514,-15.466],[-71.4942,-17.3022],[-71.3017,-17.7117],[-70.312,-18.4375],[-70.0533,-21.4257],[-70.3358,-23.0056],[-70.5747,-23.0669],[-70.5833,-24.7161],[-70.4506,-25.3655],[-70.9139,-27.6244],[-71.5021,-28.8697],[-71.3858,-30.1553],[-71.6783,-30.3422],[-71.4064,-32.394],[-71.6397,-33.5547],[-72.0168,-34.1444],[-72.2309,-35.122],[-72.6478,-35.574],[-73.2272,-37.1876],[-73.6679,-37.7268],[-73.2272,-39.2408],[-73.6792,-39.9439],[-73.9943,-40.9669],[-73.7456,-41.7544],[-72.805,-41.5168],[-72.7427,-42.9128],[-73.2794,-44.1148],[-72.6139,-44.4728],[-73.4038,-45.0312],[-73.7626,-46.2413],[-74.1558,-45.7988],[-75.7046,-46.6344],[-75.0646,-46.6061],[-73.9383,-47.0344],[-74.7414,-47.7115],[-73.7718,-48.0297],[-74.6464,-48.0768],[-74.3976,-48.6119],[-74.1284,-51.1867],[-73.0058,-52.8542],[-72.5454,-52.5371],[-71.5439,-52.5589],[-72.9583,-52.8575],[-73.2989,-53.1608],[-72.115,-53.6876],[-70.9766,-53.7609],[-70.8117,-52.7325],[-69.1521,-52.2074],[-68.3828,-52.3274],[-69.1925,-50.9668],[-68.8207,-50.3063],[-67.7881,-49.9042],[-67.5857,-49.0404],[-65.7883,-47.9329],[-65.7753,-47.1952],[-66.7096,-47.0421],[-67.6188,-46.1772],[-66.9904,-45.2817],[-65.7126,-44.8296],[-65.0338,-43.3115],[-64.2965,-42.9912],[-64.9894,-42.7946],[-64.454,-42.5072],[-63.6845,-42.8158],[-63.7325,-42.1],[-64.6009,-42.4073],[-64.8771,-42.1894],[-65.1793,-40.9906],[-64.9838,-40.7238],[-63.8075,-41.1592],[-62.3208,-40.8654],[-62.4888,-40.3026],[-62.0688,-39.5085],[-62.3517,-38.7901],[-61.5403,-39.0133],[-59.0321,-38.6906],[-57.5779,-38.1383],[-56.6606,-36.8735],[-56.6983,-36.4094],[-57.3104,-36.0949],[-57.3356,-35.1556],[-58.4697,-34.5397],[-58.5494,-33.6606],[-57.8369,-34.4928],[-57.1113,-34.4642],[-56.1583,-34.9272],[-54.8306,-34.9236],[-54.1408,-34.6647],[-53.4167,-33.7697],[-52.7361,-33.251],[-52.2276,-32.2547],[-52.2176,-31.745],[-51.4678,-31.061],[-51.1312,-30.2581],[-50.5372,-30.3067],[-51.159,-31.0778],[-50.7495,-31.0811],[-49.632,-29.2206],[-48.7835,-28.5241],[-48.5639,-27.8644],[-48.6847,-26.7053],[-48.5811,-25.8722],[-48.0541,-25.0514],[-46.9722,-24.3036],[-45.835,-23.7589],[-44.5008,-23.2896],[-44.6752,-23.0557],[-42.1508,-22.9497],[-41.9874,-22.5657],[-40.9668,-21.9579],[-40.7619,-20.8547],[-40.4175,-20.6167],[-39.6942,-19.2989],[-39.626,-18.1879],[-39.1322,-17.6863],[-39.209,-17.1661],[-38.8719,-15.8742],[-39.0667,-14.6504],[-39.0433,-13.3558],[-38.7301,-12.8713],[-38.3179,-12.9372],[-37.7003,-12.1286],[-37.0731,-10.9672],[-36.3899,-10.4892],[-35.1811,-8.9867],[-34.8153,-7.9353],[-34.7929,-7.1728],[-35.4144,-5.2185],[-37.1558,-4.9281],[-38.4965,-3.7249],[-39.9988,-2.8465],[-41.3321,-2.9304],[-42.5044,-2.7317],[-43.3475,-2.3658],[-44.3675,-2.5553],[-44.8482,-1.4671],[-46.1919,-0.9575],[-46.5981,-1.0226],[-47.2856,-0.5992],[-48.0564,-0.7081],[-49.2622,-1.9989],[-49.2857,-1.7899],[-50.7639,-2.1236],[-50.8265,-0.9287],[-52.2085,-1.6921],[-51.2975,-0.1914],[-49.941,1.1185],[-49.9321,1.7099],[-50.4453,1.8258],[-51.0181,3.1081],[-51.0794,3.8868],[-52.9732,5.4731],[-54.2047,5.8797],[-55.0474,6.0018],[-55.9106,5.7784],[-57.1358,5.9541],[-59.1547,8.0564],[-60.0064,8.545],[-61.3292,8.4308],[-60.7836,9.305],[-61.5542,9.8756],[-62.3004,9.7185],[-62.8386,10.5117],[-62.6975,10.7478],[-64.2996,10.6265],[-64.825,10.0822],[-65.9357,10.2983],[-66.2299,10.6406],[-68.1651,10.4989],[-68.4183,11.18],[-68.8437,11.4471],[-69.6318,11.4676],[-70.0143,12.1975],[-70.294,11.8617],[-70.0349,11.4413],[-71.4929,10.961],[-71.5457,10.5683],[-71.0734,9.8511],[-71.056,9.3387],[-71.4972,9.0504],[-72.1254,9.8182],[-71.5779,10.7161],[-71.9542,11.5947],[-71.1149,12.0986],[-71.5286,12.4461],[-73.2845,11.2956],[-74.237,11.235],[-74.3583,10.7834],[-74.8608,11.1255],[-75.504,10.5501],[-75.6879,9.4114],[-76.9282,8.5372],[-77.3667,8.675],[-77.331,7.7018],[-77.8897,7.2289]]]]},"properties":{"CONTINENT":"South America","SQKM":17757690.859}},
{"type":"Feature","geometry":{"type":"MultiPolygon","coordinates":[[[[-180,-84.429],[-180,-86.2574],[-180,-89],[-130.5,-89],[-71,-89],[-35.5001,-89],[-1.0001,-89],[41.4999,-89],[75.4999,-89],[131.4999,-89],[179.9999,-89],[179.9992,-84.3601],[166.8374,-82.9851],[158.4037,-80.4542],[160.738,-79.4471],[160.0412,-79.152],[164.4951,-78.569],[164.9273,-78.2445],[163.1981,-77.0291],[162.7326,-75.056],[165.3552,-74.5393],[164.7897,-74.1345],[169.7231,-73.0317],[170.13,-72.0514],[170.9903,-71.8557],[167.7678,-70.7809],[162.7992,-70.2974],[160.9947,-70.2575],[157.9562,-69.2406],[155.724,-69.2187],[154.2909,-68.8604],[152.4627,-68.7663],[151.2445,-68.9829],[151.0319,-68.4058],[148.5072,-68.2699],[145.3066,-67.605],[143.2938,-66.8556],[140.1843,-66.7176],[134.8635,-66.0559],[134.9986,-65.0427],[134.2784,-64.9757],[134.4151,-66.0991],[130.8344,-66.197],[129.8696,-66.377],[128.873,-67.1408],[126.9198,-66.8246],[126.9477,-66.4356],[125.5567,-66.4191],[123.0868,-66.7706],[122.1255,-66.5524],[117.7732,-66.9906],[116.271,-66.3894],[114.5439,-66.4779],[113.2363,-65.713],[110.8988,-66.0646],[110.7932,-66.3805],[108.8315,-66.8321],[107.2731,-66.449],[103.9999,-65.9913],[101.056,-66.0639],[99.2275,-66.8658],[98.7691,-66.548],[95.6451,-66.6816],[91.2815,-66.542],[89.0211,-66.7641],[88.245,-66.0374],[88.1124,-66.6534],[85.809,-67.1781],[82.025,-67.2527],[81.3681,-67.7964],[79.0073,-68.1248],[77.915,-68.5759],[77.9213,-69.0615],[74.9619,-69.7566],[73.3426,-69.8887],[71.5109,-70.9625],[70.7894,-71.9633],[68.8338,-72.4274],[67.3689,-72.0432],[69.0743,-70.946],[69.2846,-70.3956],[67.6592,-70.3913],[69.7342,-69.3781],[70.1139,-68.5248],[69.6899,-67.7792],[68.8764,-67.8759],[63.8972,-67.5236],[62.7409,-67.648],[56.7475,-66.9021],[57.2923,-66.5375],[55.2941,-65.9219],[52.003,-65.9769],[50.6232,-66.3786],[50.4728,-67.0651],[48.341,-67.1011],[48.9539,-67.4645],[46.3626,-67.6276],[42.8606,-68.0895],[39.7759,-68.9555],[39.7173,-69.6496],[38.6661,-69.9896],[36.7385,-69.7291],[34.6082,-68.5221],[33.3389,-68.722],[32.7001,-69.3577],[22.8924,-70.5524],[17.987,-69.9734],[15.7244,-70.2797],[12.7591,-70.2822],[10.8652,-70.6816],[9.1651,-70.0772],[8.6619,-70.4769],[7.5767,-70.1695],[6.7421,-70.5841],[4.4399,-70.6769],[0.472,-71.2713],[-0.2771,-71.6599],[-2.2318,-71.1836],[-5.8368,-71.4291],[-5.9009,-70.6947],[-8.2926,-71.8243],[-9.4456,-70.9217],[-12.266,-72.5701],[-18.5004,-73.5752],[-22.8403,-74.7357],[-24.5382,-75.5643],[-34.5023,-77.7098],[-36.2188,-78.8326],[-33.8015,-79.1658],[-30.2199,-79.1938],[-30.6327,-80.4539],[-31.9208,-80.0947],[-35.4761,-80.3034],[-44.8941,-81.7346],[-51.0192,-81.7875],[-55.5186,-82.3878],[-57.8127,-82.9888],[-59.2767,-82.4922],[-64.4472,-82.6279],[-71.5328,-81.9595],[-71.6129,-81.4115],[-60.312,-81.0444],[-59.7238,-80.7331],[-54.8191,-79.8864],[-50.2938,-80.837],[-45.2095,-80.4675],[-43.0192,-79.3693],[-44.8762,-78.5305],[-47.2707,-77.8496],[-49.2177,-77.7838],[-53.4855,-79.0592],[-59.3932,-79.7626],[-59.693,-80.1602],[-73.4061,-80.8653],[-79.3947,-80.0497],[-77.6148,-79.9227],[-80.2163,-79.2385],[-83.2599,-77.0837],[-81.1977,-77.4218],[-80.5813,-76.9591],[-75.7655,-76.6994],[-75.7513,-77.172],[-73.5162,-77.8704],[-69.3563,-78.1507],[-67.5839,-77.4882],[-67.7868,-76.8573],[-69.2343,-76.2804],[-66.3177,-76.0387],[-63.5097,-75.4818],[-63.8707,-75.0235],[-61.8604,-74.8327],[-60.5414,-73.3523],[-61.9118,-71.628],[-60.9199,-71.1604],[-62.1926,-70.7145],[-62.4463,-69.4627],[-64.0494,-68.6764],[-65.292,-68.7091],[-65.4859,-67.3924],[-64.6453,-67.1571],[-63.5464,-66.1918],[-61.6795,-66.4683],[-62.4302,-65.9127],[-62.0974,-65.2976],[-59.9196,-64.4214],[-58.7769,-64.5425],[-58.1864,-63.7289],[-57.1713,-63.2073],[-60.9899,-64.0613],[-63.0634,-65.1355],[-63.788,-65.0051],[-64.3958,-65.9504],[-65.6667,-66.1286],[-66.3719,-66.8837],[-67.5747,-67.1725],[-66.8426,-67.6589],[-67.1462,-69.3045],[-68.8049,-69.4147],[-67.3752,-71.0375],[-66.7726,-72.407],[-67.5609,-72.8338],[-69.4004,-73.198],[-71.168,-73.2979],[-73.3855,-73.5321],[-73.8804,-73.706],[-75.1517,-73.6635],[-77.0638,-73.8196],[-80.1845,-73.0045],[-80.8587,-73.7647],[-82.0472,-73.9412],[-88.7973,-73.1339],[-92.3185,-73.1561],[-96.0564,-73.3197],[-98.7753,-72.975],[-103.5692,-72.897],[-103.0043,-73.3272],[-100.4559,-73.3653],[-100.279,-73.7508],[-102.8037,-73.5864],[-101.3717,-74.4524],[-100.1934,-74.5087],[-99.9171,-75.262],[-104.2841,-75.0359],[-107.7323,-75.3303],[-110.9236,-75.1536],[-110.1048,-74.2971],[-111.3944,-74.1766],[-112.0962,-74.8601],[-113.4123,-74.7071],[-113.9705,-73.89],[-114.6645,-74.4699],[-121.5029,-74.7441],[-127.8355,-74.6802],[-129.6153,-74.8621],[-134.2392,-74.5386],[-139.2917,-75.1074],[-145.9398,-75.8996],[-145.7487,-76.4476],[-148.2265,-76.1007],[-149.4052,-76.4198],[-145.4848,-76.7364],[-145.8476,-77.3102],[-149.8179,-77.7386],[-152.1382,-77.3361],[-157.8158,-77.1493],[-157.872,-78.0024],[-154.4894,-78.0999],[-155.9083,-78.6365],[-146.4028,-79.9716],[-145.4855,-80.4835],[-148.3762,-81.3576],[-154.7974,-81.0032],[-156.9027,-81.2771],[-151.8158,-82.5491],[-152.9601,-84.0337],[-148.7167,-84.5955],[-138.647,-84.9671],[-140.0132,-85.2507],[-148.9061,-85.1335],[-157.5214,-85.4452],[-169.1837,-84.6636],[-180,-84.429]]],[[[-159.0875,-79.882],[-158.605,-79.6283],[-161.6956,-78.7439],[-163.6458,-79.3506],[-159.0875,-79.882]]],[[[166.7766,-77.8578],[169.4508,-77.47],[166.6317,-77.1728],[166.7766,-77.8578]]],[[[-121.7283,-74.3756],[-118.5778,-73.9614],[-122.3061,-73.5975],[-121.7283,-74.3756]]],[[[-123.9306,-74.1681],[-124.2306,-73.6892],[-127.1345,-73.2708],[-127.1318,-73.663],[-123.9306,-74.1681]]],[[[-74.5594,-73.6519],[-74.2383,-72.9631],[-76.0925,-73.2062],[-74.5594,-73.6519]]],[[[-98.6161,-72.5689],[-96.265,-72.5572],[-97.3175,-71.8544],[-99.0925,-71.7806],[-102.412,-72.0689],[-98.6161,-72.5689]]],[[[-75.5584,-71.6018],[-73.6313,-72.1418],[-71.8051,-71.6329],[-70.7173,-72.2871],[-72.1213,-72.2364],[-72.0242,-72.6943],[-70.1656,-72.7133],[-68.43,-72.2511],[-68.3083,-70.7975],[-70.4358,-68.7715],[-72.1899,-69.122],[-71.103,-70.0796],[-71.1636,-70.7933],[-73.2641,-71.034],[-75.5584,-71.6018]]],[[[-68.8719,-67.7708],[-67.6747,-67.1542],[-68.1861,-66.74],[-69.2289,-67.5414],[-68.8719,-67.7708]]],[[[-63.6553,-64.8344],[-62.7637,-64.5632],[-63.6186,-64.3221],[-63.6553,-64.8344]]],[[[-57.9128,-64.4453],[-57.0342,-64.1592],[-57.7875,-63.7997],[-57.9128,-64.4453]]],[[[-36.0764,-54.8903],[-36.6564,-54.1078],[-37.6922,-54.035],[-36.0764,-54.8903]]],[[[68.9303,-49.725],[69.8254,-49.344],[68.7403,-49.0689],[68.9303,-49.725]]]]},"properties":{"CONTINENT":"Antarctica","SQKM":12314949.24}},
{"type":"Feature","geometry":{"type":"MultiPolygon","coordinates":[[[[23.8485,35.523],[23.5942,35.2322],[24.7543,34.9462],[26.2397,35.0367],[26.3011,35.2831],[24.2723,35.3639],[23.8485,35.523]]],[[[15.5289,38.1369],[13.7114,37.9767],[13.1003,38.1845],[12.4308,37.8033],[14.4592,36.8342],[15.134,36.6741],[15.0927,37.3483],[15.5289,38.1369]]],[[[23.4464,38.8725],[23.6422,38.4189],[24.05,38.3658],[24.3872,37.9936],[24.1539,38.6467],[23.4464,38.8725]]],[[[3.1808,39.76],[2.3861,39.6128],[3.0603,39.2633],[3.1808,39.76]]],[[[9.5105,40.9204],[9.2331,41.2547],[8.1489,40.7442],[8.554,39.8677],[8.4083,38.9585],[9.5651,39.1456],[9.8242,40.5272],[9.5105,40.9204]]],[[[9.4475,42.6831],[8.7182,42.5706],[8.7904,41.5578],[9.2197,41.3673],[9.5526,42.1183],[9.4475,42.6831]]],[[[-7.2531,55.0468],[-7.3964,55.3783],[-8.7899,54.6586],[-8.4749,54.2735],[-9.841,54.3267],[-9.5681,53.7953],[-10.1765,53.4097],[-9.2808,53.1397],[-9.7449,52.2472],[-10.4449,52.0931],[-9.8008,51.4903],[-8.6967,51.5731],[-6.7894,52.2169],[-6.0131,52.945],[-6.1063,53.9934],[-5.4313,54.486],[-6.1458,55.2207],[-7.2531,55.0468]]],[[[12.5703,55.994],[11.0864,55.6664],[11.2454,55.2021],[12.4622,55.2896],[12.5703,55.994]]],[[[-6.145,57.5715],[-6.7853,57.4481],[-5.9281,57.0386],[-6.145,57.5715]]],[[[10.4426,57.6092],[9.3913,57.1521],[10.3366,56.9917],[10.4426,57.6092]]],[[[18.2108,56.9125],[18.686,57.9149],[18.1153,57.5253],[18.2108,56.9125]]],[[[-6.2042,58.3561],[-7.0363,58.2357],[-6.9649,57.7263],[-6.2042,58.3561]]],[[[22.9849,58.5994],[21.8374,58.5067],[22.1941,58.1452],[22.9849,58.5994]]],[[[-3.0147,58.6382],[-5.0015,58.6242],[-5.8714,57.4792],[-5.5033,57.4011],[-6.1921,56.7489],[-5.3831,56.5831],[-5.3408,55.9261],[-4.6136,55.4907],[-5.1844,54.9217],[-4.4964,54.6989],[-3.3917,54.8764],[-3.6326,54.5122],[-2.8136,54.2228],[-2.9539,53.3603],[-4.1964,53.2061],[-4.2317,52.2489],[-5.1911,51.7089],[-2.6533,51.5639],[-3.0283,51.2061],[-4.2281,51.1878],[-5.4319,50.1933],[-3.6519,50.2311],[-3.4942,50.5464],[-1.1589,50.8408],[0.2636,50.7414],[1.3558,51.1276],[0.5594,51.406],[1.2833,51.8524],[1.6453,52.7711],[0.3789,52.7814],[-0.0793,54.1134],[-1.1653,54.6497],[-1.636,55.5819],[-2.6311,56.0547],[-1.9297,57.6778],[-4.12,57.8508],[-3.0147,58.6382]]],[[[-16.0254,66.5361],[-16.5947,66.0911],[-18.8526,66.2008],[-21.0969,65.4408],[-22.4217,66.4333],[-24.1052,65.8057],[-23.9786,65.4146],[-22.1592,65.5417],[-23.945,64.7647],[-22.4072,64.8125],[-21.9694,64.0683],[-22.7192,63.8256],[-20.6783,63.847],[-18.71,63.3911],[-14.5413,64.4047],[-13.4994,65.0692],[-13.6096,65.5061],[-16.0254,66.5361]]],[[[50.3128,69.1562],[48.5825,69.425],[48.7854,68.723],[50.3128,69.1562]]],[[[59.4611,70.2767],[58.4092,70.2536],[59.6017,69.7125],[59.4611,70.2767]]],[[[10.9794,54.3806],[10.1269,54.4897],[9.4615,55.1221],[10.3557,56.1975],[10.3119,56.9813],[9.3026,56.9999],[8.6435,56.4743],[8.1607,56.6455],[8.0929,55.5562],[8.6381,55.4028],[9.0112,54.5035],[8.9075,53.828],[8.286,53.4209],[7.2958,53.6853],[7.0499,53.3411],[5.8908,53.3822],[5.3699,53.0704],[5.8781,52.5094],[4.5744,52.4545],[4.2055,51.6523],[1.625,50.8778],[1.5056,50.2019],[0.1697,49.6889],[-0.2283,49.2836],[-1.8565,49.6486],[-1.3689,48.6436],[-2.6853,48.5017],[-3.1244,48.865],[-4.7289,48.5589],[-4.7059,48.0681],[-2.7003,47.6371],[-1.7864,46.4883],[-1.1146,46.3166],[-1.2086,44.6258],[-1.4439,43.6405],[-2.1633,43.2911],[-3.5499,43.5069],[-4.2183,43.3969],[-7.2474,43.5622],[-7.8981,43.7642],[-9.2082,43.1551],[-8.6456,41.0026],[-9.476,38.7053],[-8.7689,38.5172],[-8.9892,37.0263],[-7.9731,37.0083],[-7.1272,37.2206],[-6.3556,36.8608],[-6.0442,36.1861],[-5.6136,36.0061],[-4.3999,36.7215],[-2.1229,36.7335],[-1.684,37.346],[-0.8583,37.7155],[-0.5117,38.325],[0.2072,38.7322],[-0.3376,39.4381],[0.9644,41.0328],[2.1174,41.2893],[3.2017,41.8928],[2.9613,42.8422],[4.0562,43.5628],[5.229,43.4932],[5.8668,43.0586],[6.6417,43.185],[7.1557,43.6606],[8.0678,43.8931],[8.7472,44.4281],[10.2362,43.879],[10.5889,42.9575],[13.0296,41.2601],[13.7122,41.2511],[14.7535,40.676],[14.9272,40.2711],[15.6637,40.0331],[16.2198,38.9214],[15.6678,37.9578],[16.0573,37.9242],[17.0978,38.9078],[17.1456,39.3964],[16.53,39.6629],[16.9193,40.4506],[17.8572,40.2844],[18.3494,39.7919],[18.5125,40.1347],[18.0126,40.6431],[15.985,41.4397],[16.0229,41.9467],[15.1624,41.9244],[13.9872,42.7111],[13.5994,43.57],[12.3683,44.2467],[12.5381,44.9606],[12.1611,45.2639],[13.63,45.77],[13.9044,44.7726],[14.3231,45.351],[14.8315,45.1154],[15.118,44.2708],[16.1027,43.4758],[16.8817,43.4036],[19.5977,41.8061],[19.3072,40.6453],[19.4514,40.2267],[20.7811,38.9317],[21.1642,38.3001],[21.9478,38.4094],[21.1108,37.8441],[21.6497,37.4419],[21.8751,36.7235],[22.1525,37.0185],[23.1138,36.7705],[22.7281,37.4856],[23.5214,37.46],[23.0189,37.9197],[24.034,37.6528],[24.074,38.195],[22.9536,38.7517],[23.2632,39.3264],[22.5689,40.0572],[22.5852,40.465],[23.646,40.2308],[23.6894,40.6794],[25.0377,41.0046],[26.0447,40.7358],[26.0595,40.7343],[26.1202,40.7477],[26.6364,41.4135],[26.5703,41.6114],[26.6214,41.9731],[28.0131,41.9822],[27.6792,42.4183],[28.1504,43.4044],[28.6051,43.534],[28.8692,44.9405],[29.6083,44.8454],[29.9836,45.8432],[30.8328,46.5483],[31.9082,46.6536],[31.766,46.3098],[33.7694,45.9253],[32.5097,45.3397],[33.5665,45.0875],[33.9303,44.3792],[35.5266,45.1185],[36.2282,45.0058],[36.6046,45.4186],[35.0587,45.3654],[34.7025,46.1758],[37.5389,47.0786],[39.0747,47.0272],[37.824,46.48],[38.5709,46.0911],[37.9512,46.032],[37.7346,45.2988],[36.6255,45.1273],[38.9643,44.1472],[40.003,43.3793],[40.0812,43.551],[40.1267,43.5722],[41.2136,43.3789],[41.565,43.2322],[42.8552,43.1778],[43.9119,42.5833],[44.751,42.6929],[44.8083,42.6653],[45.7603,42.4779],[45.638,42.2202],[46.7744,41.7956],[47.2746,41.3211],[47.9155,41.225],[49.7606,42.7108],[49.0386,43.8154],[48.6862,44.7543],[50.0385,45.8585],[48.4944,46.6672],[49.0272,46.7761],[48.0373,47.7826],[47.1446,47.8121],[46.5561,48.5239],[46.6311,48.6638],[47.0437,49.1036],[46.9314,49.8658],[47.6274,50.4574],[48.4467,49.8174],[48.9147,50.0328],[48.6975,50.5919],[49.5847,51.1083],[49.8292,51.13],[50.759,51.7214],[51.677,51.4557],[53.6119,51.3012],[53.7517,51.2142],[55.5378,50.6128],[55.6753,50.5375],[56.53,51.0747],[57.1274,51.0847],[57.2661,51.0181],[58.2119,51.0967],[58.3144,51.15],[58.95,50.6822],[61.2778,50.7689],[61.3394,50.7767],[61.4908,51.425],[60.1375,51.8649],[60.0875,51.8669],[60.1442,52.4237],[58.8396,52.4417],[58.8049,52.4361],[58.8707,53.7529],[59.7367,54.138],[59.7469,54.2114],[59.9757,54.7865],[57.9703,54.3882],[57.153,54.8532],[57.8436,55.3022],[58.0222,55.2779],[58.615,54.949],[59.2924,56.1341],[57.4478,56.1354],[57.2217,56.851],[57.873,57.0665],[58.0105,57.0767],[58.0492,57.6074],[58.8569,57.73],[58.8564,58.2058],[58.9256,58.2005],[59.4491,58.488],[59.1823,59.1637],[58.311,59.4604],[59.4736,60.8096],[59.2628,61.2133],[59.6429,62.5184],[59.226,63.0355],[59.5776,63.9329],[59.6597,63.9667],[59.6507,64.778],[61.3905,65.3811],[61.4317,65.4239],[62.8496,65.871],[63.4086,66.4528],[65.115,66.929],[65.2236,67.1461],[66.1089,67.4812],[65.4342,67.9198],[65.6523,68.5573],[64.8326,69.1521],[63.4353,69.66],[60.9317,69.863],[60.1608,69.6321],[60.9144,68.9047],[59.0724,68.4246],[58.8119,68.9933],[57.3487,68.5658],[55.9768,68.6594],[54.661,68.1798],[53.7756,68.9669],[48.0015,67.6524],[47.6997,66.9864],[46.0336,66.8249],[44.9274,67.3471],[46.6715,67.8044],[45.9033,68.4822],[43.355,68.5983],[44.2449,68.2646],[43.7505,67.2522],[44.4964,66.9075],[43.858,66.1769],[42.1425,66.5122],[39.7042,65.4053],[40.5237,64.541],[39.546,64.5632],[37.0417,65.2072],[36.4396,64.9379],[37.9789,64.3167],[37.5378,63.8221],[34.7878,64.5478],[34.5667,66.078],[32.5183,66.8822],[35.5091,66.3877],[38.6078,66.0522],[40.4433,66.4008],[41.2197,66.8378],[40.4636,67.755],[35.975,69.173],[32.4946,69.5054],[29.7969,70.0658],[31.0735,70.2855],[30.1086,70.7074],[27.6517,71.1131],[24.5885,70.961],[23.1787,70.0911],[21.9867,70.3187],[20.5658,69.7614],[18.2569,69.4864],[15.9611,68.013],[13.5975,66.9367],[12.3549,65.6408],[12.6247,65.1336],[11.4275,64.9236],[9.5453,63.7661],[7.9846,62.9726],[4.9829,61.74],[5.1449,60.361],[5.9569,59.9515],[5.1789,59.5068],[6.1237,59.4865],[5.6233,58.5576],[7.0079,57.9879],[8.2136,58.1203],[10.6099,59.5919],[11.2014,58.3994],[11.8805,58.2021],[11.7019,57.6999],[12.9011,56.4572],[12.4601,56.2967],[12.9822,55.4006],[14.1935,55.3861],[14.7172,56.1617],[15.8656,56.0922],[16.3798,56.6633],[16.9073,58.6167],[18.3114,59.1325],[16.4808,59.4998],[18.3283,59.3979],[18.8647,59.798],[17.1525,60.9428],[17.5147,62.2299],[18.2892,62.9972],[20.774,63.8671],[21.585,64.4397],[21.0942,64.783],[22.3682,65.8592],[24.5592,65.7901],[25.4442,64.9534],[24.5396,64.7992],[22.34,63.2765],[21.1056,62.7674],[21.6639,61.5403],[21.5881,60.5094],[23.0614,60.3532],[23.7972,59.9619],[26.0551,60.4228],[28.1467,60.5294],[29.8799,60.1453],[27.8481,59.4067],[25.6805,59.6617],[23.5053,59.2268],[23.5011,58.5769],[24.1036,58.2355],[24.3732,57.219],[23.5861,56.9767],[22.6069,57.7491],[21.729,57.5747],[21.0623,56.8419],[21.2451,54.9551],[19.9412,54.9278],[20.3973,54.6751],[19.3711,54.2686],[18.3361,54.836],[16.5436,54.5447],[16.2178,54.2736],[13.8085,53.8548],[13.0239,54.3997],[11.4128,53.9197],[10.9794,54.3806]]],[[[55.3219,73.3322],[53.1533,73.1535],[52.4033,72.0796],[51.5744,72.0708],[53.9389,71.14],[53.6763,70.8651],[57.3865,70.6026],[55.221,71.9256],[56.4675,73.2155],[55.3219,73.3322]]],[[[68.2661,76.9586],[64.06,76.3097],[61.0903,76.2755],[55.9257,75.1939],[56.2497,74.4758],[53.6327,73.7589],[56.7496,73.2453],[61.3811,75.3306],[68.3186,76.288],[68.2661,76.9586]]],[[[22.3189,77.5761],[24.3626,77.8353],[22.9828,78.2469],[20.8672,77.4546],[22.3189,77.5761]]],[[[16.8192,79.8722],[16.3276,78.916],[14.5228,79.8018],[10.7444,79.56],[11.9182,78.6293],[14.1114,78.2556],[13.9142,77.525],[16.5719,76.575],[18.2965,77.5129],[18.9699,78.452],[21.5404,78.8405],[18.9182,79.1669],[16.8192,79.8722]]],[[[20.0303,80.4539],[17.7325,80.1312],[20.7656,79.3637],[24.1629,79.236],[27.2295,80.0577],[25.2894,80.275],[22.1989,79.9847],[20.0303,80.4539]]]]},"properties":{"CONTINENT":"Europe","SQKM":9898596.9251}},
{"type":"Feature","geometry":{"type":"MultiPolygon","coordinates":[[[[-60.9231,10.7972],[-61.6028,10.7422],[-61.0044,10.1496],[-60.9231,10.7972]]],[[[-66.9967,18.505],[-67.2047,17.9535],[-65.8868,17.9879],[-65.9042,18.4544],[-66.9967,18.505]]],[[[-77.6886,18.4864],[-78.211,18.4514],[-77.7197,17.8472],[-77.1825,17.6981],[-76.8478,17.9826],[-76.2211,17.9042],[-76.8961,18.3747],[-77.6886,18.4864]]],[[[-72.6736,19.9167],[-73.4051,19.8318],[-72.7233,19.455],[-72.8003,19.0331],[-72.3213,18.6664],[-72.7367,18.4246],[-74.1749,18.6664],[-74.4467,18.3419],[-73.8817,18.0228],[-73.3864,18.2619],[-71.9267,18.1847],[-71.4239,17.6042],[-70.6645,18.435],[-68.8633,18.3842],[-68.3578,18.6547],[-68.7389,18.9578],[-69.6201,19.0885],[-69.8885,19.6262],[-70.9945,19.9307],[-71.7197,19.7013],[-72.6736,19.9167]]],[[[-82.005,23.1882],[-83.2292,22.9989],[-84.0699,22.6615],[-84.5281,21.7753],[-83.3681,22.2017],[-82.6247,22.6828],[-81.885,22.6808],[-81.8231,22.1836],[-80.5559,22.0628],[-79.9878,21.7236],[-78.7581,21.6403],[-78.0481,20.6989],[-77.0785,20.4672],[-77.7424,19.871],[-76.2489,19.9908],[-75.3556,19.8756],[-74.1333,20.1913],[-74.985,20.6933],[-75.7175,20.6901],[-75.5797,21.0069],[-76.8839,21.4197],[-77.4989,21.8503],[-78.7906,22.395],[-79.259,22.3726],[-80.0376,22.9512],[-82.005,23.1882]]],[[[-77.7736,24.7328],[-78.192,25.2036],[-78.4401,24.6167],[-78.0197,24.2747],[-77.7736,24.7328]]],[[[-72.3883,41.085],[-73.5894,40.9205],[-74.0044,40.5804],[-72.5428,40.8256],[-72.3883,41.085]]],[[[-60.4467,46.8629],[-60.5956,47.0301],[-61.5275,45.9894],[-61.3369,45.5733],[-59.8406,45.9383],[-60.4208,46.3275],[-60.4467,46.8629]]],[[[-64.0742,46.7535],[-64.1273,46.4109],[-62.5451,45.97],[-62.1744,46.486],[-63.2164,46.4122],[-64.0742,46.7535]]],[[[-62.1692,49.4011],[-64.2269,49.9483],[-63.0939,49.2293],[-61.6648,49.1442],[-62.1692,49.4011]]],[[[-127.2269,50.6361],[-128.4133,50.7709],[-126.5786,49.4121],[-125.5047,48.919],[-123.5499,48.307],[-123.2776,48.4522],[-123.943,49.2111],[-124.7894,49.4642],[-125.4564,50.3267],[-127.2269,50.6361]]],[[[-55.8822,51.495],[-56.6204,51.3676],[-57.368,50.5931],[-58.7269,48.5637],[-59.4036,47.8942],[-59.1619,47.5617],[-54.8437,47.5601],[-55.8033,46.8605],[-55.2586,46.9103],[-54.1962,47.8412],[-53.5914,47.1561],[-53.6143,46.6412],[-52.9367,46.7971],[-52.6174,47.5085],[-53.1756,47.4314],[-52.9235,48.1707],[-53.5452,47.541],[-53.9097,48.084],[-53.5339,48.4519],[-53.9744,48.8478],[-53.5111,49.2772],[-54.5797,49.4947],[-55.6681,49.3835],[-56.1226,50.1545],[-56.7431,50.0228],[-55.4068,51.5645],[-55.8822,51.495]]],[[[-80.6711,52.7466],[-81.1113,53.2003],[-82.0579,53.0199],[-80.6711,52.7466]]],[[[-131.7622,53.1967],[-131.7995,53.2514],[-132.0658,53.156],[-132.3786,53.1294],[-132.5579,53.1462],[-131.2647,52.1197],[-131.7622,53.1967]]],[[[-166.6364,53.875],[-167.4953,53.2792],[-166.2754,53.6812],[-166.6364,53.875]]],[[[-132.8178,54.1214],[-133.1026,53.7809],[-132.72,53.3208],[-132.4521,53.1444],[-131.9897,53.2498],[-131.6637,54.1403],[-132.8178,54.1214]]],[[[-163.4221,54.9202],[-164.4911,54.9146],[-164.7767,54.3964],[-163.336,54.708],[-163.4221,54.9202]]],[[[-131.056,55.8062],[-131.8192,55.4536],[-131.2053,55.1868],[-131.056,55.8062]]],[[[-133.4886,56.3369],[-133.366,55.6156],[-132.0072,54.69],[-131.97,55.1786],[-132.6218,55.9196],[-133.4886,56.3369]]],[[[-133.9905,56.8726],[-134.3965,56.8546],[-134.1022,56.0119],[-133.9905,56.8726]]],[[[-134.9454,57.3649],[-135.3674,56.8322],[-134.7617,56.2214],[-134.9454,57.3649]]],[[[-153.1169,57.95],[-154.7995,57.2833],[-153.986,56.7385],[-152.3358,57.4275],[-153.1169,57.95]]],[[[-135.7428,58.2561],[-136.3479,58.2204],[-134.8545,57.4587],[-134.9358,58.0319],[-135.7428,58.2561]]],[[[-134.6923,58.1677],[-134.4777,57.0291],[-133.8647,57.4583],[-134.6923,58.1677]]],[[[-166.1103,60.4021],[-167.4181,60.1894],[-166.5981,59.8504],[-165.6122,59.9022],[-166.1103,60.4021]]],[[[-79.5406,62.4111],[-80.2778,61.8124],[-79.837,61.5683],[-79.5406,62.4111]]],[[[-81.9088,62.9511],[-83.3047,62.9251],[-83.9439,62.4244],[-82.7692,62.2903],[-81.9088,62.9511]]],[[[-171.4656,63.6067],[-169.8053,63.1253],[-169.11,63.2983],[-170.4858,63.7033],[-171.4656,63.6067]]],[[[-85.5019,65.7997],[-86.012,65.7121],[-86.226,64.0816],[-87.1186,63.5558],[-85.6104,63.6675],[-85.4907,63.1201],[-83.6349,63.7707],[-83.5483,64.1025],[-81.11,63.4583],[-80.1945,63.8045],[-81.6067,64.1279],[-81.7631,64.5011],[-84.7964,65.2243],[-85.5019,65.7997]]],[[[-75.5828,68.3003],[-76.8622,68.1597],[-77.051,67.2639],[-75.0251,67.6225],[-75.5828,68.3003]]],[[[-134.243,69.5766],[-135.7982,69.3181],[-134.6657,68.9592],[-134.243,69.5766]]],[[[-97.3649,69.6897],[-99.5917,69.0219],[-96.2997,68.4708],[-95.664,68.8358],[-97.3649,69.6897]]],[[[-52.6931,69.9175],[-54.7561,70.243],[-54.9879,69.6903],[-53.5785,69.2297],[-52.0783,69.498],[-52.6931,69.9175]]],[[[-25.3976,70.9144],[-27.1496,70.8744],[-28.0358,70.4264],[-26.0172,70.5247],[-25.3976,70.9144]]],[[[-77.3667,8.675],[-78.0344,9.2288],[-79.6258,9.5942],[-80.8371,8.8784],[-81.5073,8.7931],[-82.2428,9.0024],[-83.4617,10.4789],[-83.8714,11.3142],[-83.4951,12.3909],[-83.5511,13.4506],[-83.1924,14.2996],[-83.3935,15.2564],[-83.7583,15.1967],[-84.2601,15.826],[-85.9069,15.9921],[-86.3578,15.7695],[-88.1696,15.6878],[-88.9106,15.8936],[-88.2133,16.9621],[-88.0733,18.4936],[-87.8475,18.1908],[-87.4241,19.6044],[-87.4256,20.2228],[-86.7753,21.1526],[-87.9942,21.6028],[-89.7045,21.2964],[-90.3513,21.0053],[-90.7317,19.3615],[-91.7736,18.4456],[-91.9563,18.7175],[-94.4692,18.1462],[-95.216,18.7112],[-95.8011,18.745],[-96.4444,19.855],[-97.1754,20.684],[-97.6707,21.674],[-97.8772,22.6556],[-97.6972,24.2558],[-97.1603,25.7722],[-97.5574,27.0055],[-96.8003,28.4715],[-95.6183,28.7556],[-94.7658,29.5681],[-93.1183,29.7636],[-92.2732,29.541],[-91.631,29.739],[-90.702,29.1158],[-90.0265,29.4251],[-89.0093,29.1964],[-89.7527,29.633],[-89.5931,30.1533],[-88.8325,30.4131],[-87.7772,30.2317],[-86.3374,30.3844],[-85.3066,29.7],[-84.2056,30.1057],[-83.6319,29.8757],[-82.6297,28.8801],[-82.8542,27.8586],[-81.3277,25.7881],[-81.0881,25.1156],[-80.5032,25.1987],[-80.1361,25.9056],[-80.0353,26.7957],[-80.7572,28.4207],[-80.6032,28.6086],[-81.2553,29.7967],[-81.5338,30.8494],[-81.1219,31.7286],[-80.3277,32.4804],[-79.2058,33.1655],[-78.6006,33.8708],[-77.9344,33.9269],[-77.6822,34.3655],[-75.7408,35.6185],[-75.8508,35.9753],[-76.7295,35.9398],[-75.9389,36.2838],[-76.3317,36.8636],[-76.2282,37.8817],[-76.5767,39.2672],[-76.0848,39.549],[-76.3219,38.4886],[-75.8464,38.3988],[-75.9608,37.1522],[-75.0639,38.5869],[-75.5269,39.4653],[-74.8208,38.9719],[-73.9522,40.3],[-74.1993,40.641],[-72.8904,41.2544],[-71.5117,41.37],[-69.9354,41.6725],[-70.5268,41.806],[-71.0449,42.3672],[-70.1725,43.7805],[-69.5004,43.8504],[-68.8132,44.3303],[-66.9708,44.8279],[-64.2899,45.77],[-64.9135,45.4133],[-63.3696,45.3599],[-64.8707,45.1353],[-66.1186,44.338],[-65.7212,43.5007],[-65.0306,43.7042],[-63.9086,44.678],[-63.6349,44.4364],[-60.9885,45.326],[-61.9194,45.884],[-62.4619,45.6125],[-63.3617,45.7466],[-64.5042,46.2403],[-65.3662,47.0855],[-64.6749,47.7249],[-65.7179,47.815],[-64.1655,48.6278],[-64.5974,49.1147],[-66.0817,49.2192],[-68.4536,48.5325],[-69.4506,47.9792],[-70.4864,47.0336],[-69.0594,48.7664],[-68.1343,49.2593],[-67.3721,49.33],[-66.5119,50.2392],[-63.8124,50.3119],[-60.1144,50.233],[-58.9474,50.8311],[-58.6243,51.2764],[-56.9516,51.4246],[-55.6993,52.0853],[-56.0608,52.7661],[-55.8081,53.3405],[-57.0147,53.7114],[-57.4683,54.1939],[-58.5503,54.0092],[-60.1336,53.2836],[-60.0828,53.7625],[-57.6256,54.3826],[-59.1253,55.1936],[-59.7981,55.109],[-60.3328,55.7813],[-61.4997,56.0131],[-62.0782,56.4219],[-61.3556,57.0164],[-62.3086,57.4905],[-62.5569,58.4803],[-64.8448,60.3611],[-65.6519,59.0792],[-67.5851,58.208],[-68.3935,58.8139],[-69.3883,58.859],[-69.2381,59.2318],[-69.8197,60.526],[-69.3703,60.8078],[-71.39,61.1378],[-71.5733,61.6071],[-73.6835,62.48],[-74.7569,62.2059],[-77.5083,62.5617],[-78.085,62.3533],[-77.5853,61.6025],[-78.1656,60.861],[-77.4275,59.9147],[-78.4685,58.6986],[-77.1472,58.0228],[-76.5314,57.0919],[-76.5383,56.2978],[-77.2203,55.5918],[-78.3739,55.0303],[-79.7618,54.6517],[-79.1194,54.0786],[-78.8814,52.8999],[-78.5071,52.4575],[-79.7369,51.1194],[-80.431,51.3562],[-82.2739,52.9564],[-82.1336,53.7583],[-82.4417,54.3308],[-82.3078,55.1489],[-84.5414,55.2475],[-87.5486,56.05],[-88.815,56.8244],[-91.1558,57.24],[-92.7215,56.9462],[-92.4411,57.2305],[-93.1539,58.739],[-94.4161,58.7153],[-94.821,59.9556],[-94.3512,60.8561],[-93.2444,61.7785],[-92.4563,62.7994],[-91.3615,62.7881],[-90.7419,63.3608],[-93.2731,63.928],[-90.8494,63.5597],[-89.82,64.1462],[-87.9874,64.1884],[-86.9351,65.1429],[-89.0575,65.3307],[-89.6682,65.9372],[-87.3592,65.3254],[-85.8973,66.168],[-86.5814,66.5241],[-83.8437,66.1546],[-81.2422,67.4701],[-82.5776,68.5253],[-81.259,68.6418],[-81.2994,69.1203],[-82.6967,69.6958],[-85.5147,69.7681],[-84.7942,68.7339],[-85.6694,68.719],[-86.5061,67.3728],[-88.1558,67.6779],[-88.2032,68.9091],[-89.3144,69.2493],[-90.1232,68.2554],[-90.8101,69.2551],[-90.3134,69.4481],[-92.7769,69.7143],[-91.5781,70.1375],[-92.9825,70.8255],[-92.9835,71.3469],[-94.3908,71.9337],[-96.5004,71.2789],[-96.0006,70.58],[-96.5285,70.1269],[-94.2792,69.4403],[-94.625,68.7614],[-93.659,68.5221],[-96.4549,67.4746],[-95.9803,68.2547],[-97.9969,68.5382],[-98.0639,67.8292],[-101.515,67.6794],[-104.5005,68.0334],[-106.2081,68.9409],[-108.3453,68.6019],[-107.6044,68.1724],[-105.6518,68.6361],[-107.9692,67.6767],[-107.3114,67.1272],[-110.0774,68.0056],[-112.3958,67.6792],[-115.5033,67.9344],[-114.021,68.244],[-114.984,68.861],[-117.8705,68.9855],[-122.0532,69.8135],[-124.5164,69.4018],[-124.4361,70.1511],[-125.4208,69.3126],[-127.125,70.2372],[-131.0928,69.6069],[-129.4975,70.0205],[-130.8922,70.0992],[-134.7089,68.8928],[-137.255,68.9483],[-139.1124,69.5036],[-143.294,70.1125],[-144.9522,69.9683],[-149.1747,70.4908],[-151.1796,70.3744],[-152.2172,70.813],[-154.6126,70.8276],[-156.5967,71.3514],[-157.9794,70.8375],[-159.6724,70.7961],[-161.8589,70.3181],[-163.1203,69.3847],[-164.2397,68.9394],[-166.2324,68.8723],[-166.5485,68.3532],[-164.1241,67.61],[-163.7567,67.1257],[-161.8992,67.0511],[-161.4973,66.5333],[-162.1364,66.0697],[-163.6564,66.0705],[-163.9336,66.6086],[-165.6422,66.3608],[-168.0928,65.5989],[-166.1547,65.2936],[-166.9378,65.1469],[-166.1214,64.5747],[-163.4905,64.5528],[-162.7903,64.3361],[-161.3852,64.5364],[-160.8181,63.7164],[-163.3286,63.0336],[-164.5845,63.1341],[-164.8478,62.5693],[-166.1168,61.4921],[-164.9472,61.0192],[-165.4224,60.5521],[-163.6595,59.795],[-162.5422,59.988],[-161.7096,59.4969],[-161.6322,58.5992],[-160.3228,59.0583],[-159.0629,58.4286],[-158.4972,59.044],[-157.4687,58.4985],[-157.6822,57.5634],[-160.574,55.9937],[-161.7767,55.8932],[-163.3529,54.8097],[-160.4773,55.4925],[-158.6443,55.995],[-158.3364,56.4765],[-156.5523,56.9789],[-156.49,57.3311],[-155.0334,58.0146],[-154.2357,58.1307],[-153.2612,58.8596],[-154.1804,59.0294],[-151.8001,60.855],[-151.4165,60.7089],[-151.8796,59.7825],[-151.7461,59.1625],[-149.7508,59.6592],[-149.3715,60.1162],[-148.4385,59.9485],[-148.304,60.8479],[-146.7554,60.9525],[-146.4933,60.6883],[-143.9656,60.0082],[-142.7172,60.11],[-140.2311,59.7111],[-138.2003,59.0297],[-137.265,58.4561],[-134.7576,58.382],[-133.5576,57.9236],[-133.4886,57.1661],[-131.993,56.3578],[-132.2453,55.7239],[-131.0128,56.1065],[-130.9106,54.7919],[-130.0788,54.9926],[-130.4554,54.3376],[-129.3536,53.4078],[-128.9696,53.5532],[-127.8573,52.2126],[-127.4306,50.9405],[-126.1989,50.8558],[-126.2769,50.5163],[-124.6029,50.2404],[-122.4367,48.5904],[-122.5656,47.938],[-124.7143,48.3971],[-123.9835,46.3938],[-123.9448,45.1799],[-124.1539,43.7939],[-124.5149,42.9057],[-124.0458,41.3944],[-124.3312,40.2725],[-123.8675,39.8692],[-123.7015,38.9304],[-122.0643,37.4593],[-121.8676,36.3153],[-120.6001,35.1001],[-120.449,34.4557],[-119.5417,34.4142],[-118.5544,34.0557],[-117.495,33.3422],[-116.6756,31.5608],[-116.0555,30.7965],[-115.6967,29.7742],[-114.946,29.3739],[-114.0613,28.5176],[-114.1754,27.695],[-115.0206,27.8467],[-114.4755,27.2381],[-113.4314,26.8442],[-112.3586,26.2183],[-112.1001,25.7281],[-112.1697,24.9572],[-111.7936,24.5625],[-110.3112,23.5607],[-110.0806,22.9867],[-109.4389,23.2258],[-109.7997,24.0122],[-110.6146,24.2862],[-110.6678,24.8039],[-112.3174,27.5028],[-112.7531,27.8375],[-112.8632,28.4185],[-113.5447,28.9511],[-114.6597,30.1986],[-114.9221,31.8717],[-113.0917,31.2297],[-113.0814,30.6989],[-112.1619,28.9714],[-111.1033,27.9369],[-110.5114,27.855],[-110.335,27.1844],[-109.5199,26.7643],[-109.2317,26.3194],[-109.4375,25.8203],[-108.3525,25.1672],[-107.9955,24.6491],[-107.0431,23.9828],[-105.8204,22.664],[-105.6503,21.9812],[-105.1895,21.4375],[-105.6754,20.4242],[-105.0225,19.3719],[-104.3164,19.0766],[-103.4967,18.3494],[-101.9528,17.9785],[-101.0111,17.2653],[-99.686,16.7069],[-98.7822,16.5531],[-97.7928,15.9721],[-96.4761,15.6436],[-95.4203,15.9781],[-94.8592,16.4271],[-93.9386,16.0939],[-92.2189,14.5217],[-91.3847,13.9789],[-90.6276,13.9306],[-89.8185,13.5358],[-87.9378,13.1564],[-87.6376,13.4591],[-87.3014,12.9866],[-87.6898,12.9177],[-86.7799,12.2062],[-85.6696,11.055],[-85.8575,10.3694],[-85.1422,9.5894],[-84.7476,9.9672],[-84.6186,9.5794],[-83.6265,9.0365],[-82.8428,8.2737],[-81.7386,8.1625],[-81.5722,7.7572],[-81.0581,7.8733],[-80.8825,7.2203],[-80.0247,7.4517],[-80.4814,8.0832],[-79.4779,8.9974],[-78.5072,8.6169],[-78.4328,8.0489],[-77.8897,7.2289],[-77.331,7.7018],[-77.3667,8.675]]],[[[-23.6086,72.835],[-24.3714,72.5988],[-22.2772,72.1139],[-21.9469,72.4811],[-23.6086,72.835]]],[[[-114.0043,72.798],[-114.5617,73.3755],[-117.3536,72.9164],[-119.0503,71.6266],[-117.5253,71.3769],[-115.6128,71.4973],[-118.4109,71.0003],[-117.5515,70.5962],[-113.9383,70.7153],[-111.4526,70.2832],[-114.5111,70.3147],[-117.4326,69.9835],[-116.5322,69.4089],[-113.6865,69.1907],[-112.6703,68.4691],[-109.65,68.6336],[-106.4079,69.1846],[-102.8947,68.8],[-101.8099,68.9998],[-102.514,69.5612],[-101.5332,70.1078],[-103.995,70.754],[-105.8302,73.0459],[-108.0844,73.35],[-107.7799,72.1393],[-109.9189,72.968],[-110.0533,72.4367],[-113.007,73.0089],[-114.0043,72.798]]],[[[-24.36,73.4119],[-25.7112,73.1953],[-24.4039,73.0239],[-23.0092,73.095],[-24.36,73.4119]]],[[[-105.0985,73.7394],[-106.5722,73.7119],[-105.3831,72.8667],[-105.0985,73.7394]]],[[[-80.1503,73.698],[-80.8761,73.3332],[-79.3592,72.7336],[-76.0744,72.923],[-77.1975,73.5035],[-80.1503,73.698]]],[[[-86.1092,73.85],[-88.9954,73.281],[-89.9556,72.3119],[-89.8233,71.3269],[-88.8975,70.5328],[-85.7525,70.1019],[-82.1313,69.7835],[-82.2997,70.1189],[-78.7919,69.8911],[-78.7475,70.4389],[-77.6476,69.7653],[-75.6114,69.2441],[-76.4285,68.6782],[-74.9158,68.8093],[-72.9933,68.2054],[-72.2583,67.248],[-74.4709,66.1348],[-73.5006,65.4744],[-75.2119,65.2505],[-77.4245,65.4481],[-78.1807,64.57],[-76.6705,64.1841],[-74.6858,64.3711],[-74.0539,64.728],[-72.3674,63.7881],[-71.2299,63.6026],[-71.7103,63.1771],[-68.6158,62.2639],[-66.2818,61.8583],[-65.9365,62.1997],[-68.993,63.7465],[-66.164,62.9378],[-64.7695,62.8622],[-64.6341,63.9746],[-66.6942,65.0354],[-67.9386,65.908],[-67.9893,66.5076],[-66.8519,66.5833],[-64.5506,65.0943],[-63.547,64.8872],[-63.6519,65.4704],[-62.6492,65.5867],[-62.7106,66.2007],[-61.2646,66.6261],[-61.7497,66.948],[-63.4344,66.9049],[-65.0011,68.0555],[-66.0322,67.9525],[-66.7024,68.4364],[-68.7778,68.6431],[-66.6467,69.2036],[-68.5364,69.5786],[-67.1278,69.7269],[-67.8014,70.2607],[-69.8302,70.1518],[-68.3197,70.5648],[-73.6076,71.7722],[-75.2235,72.499],[-77.5764,72.7556],[-77.8936,72.2594],[-80.4799,72.1768],[-80.2528,72.7275],[-81.5725,73.7197],[-82.8208,73.7336],[-85.4013,73.136],[-85.5557,71.8985],[-86.698,72.6538],[-84.8403,73.7387],[-86.1092,73.85]]],[[[-99.8073,73.8979],[-101.619,73.4878],[-100.0314,72.935],[-102.739,72.7221],[-100.6393,72.1869],[-99.2294,71.3436],[-96.5643,71.8244],[-96.6119,72.7469],[-98.4503,73.0203],[-96.9658,73.7398],[-99.8073,73.8979]]],[[[-92.6381,74.103],[-95.2453,74.0103],[-95.6775,73.7176],[-95.2106,71.9917],[-94.0726,71.9772],[-93.3378,72.8078],[-92.0661,72.7525],[-90.1976,73.898],[-92.6381,74.103]]],[[[-120.15,74.2725],[-121.2536,74.5258],[-124.7556,74.3428],[-123.8431,73.8232],[-125.7614,71.9508],[-124.0186,71.6875],[-123.0856,71.0796],[-120.6017,71.4936],[-119.1632,72.6228],[-115.4022,73.5683],[-117.5125,74.2386],[-120.15,74.2725]]],[[[-94.3639,75.5908],[-96.6156,74.988],[-93.4616,74.7104],[-94.3639,75.5908]]],[[[-98.411,76.6648],[-100.9525,76.4747],[-102.673,75.5147],[-99.7408,75.6908],[-100.3922,75.0357],[-97.9825,75.0153],[-97.4947,76.1439],[-98.411,76.6648]]],[[[-108.6533,76.811],[-110.3782,76.2961],[-108.8967,75.4776],[-111.2217,75.5169],[-114.2072,76.468],[-115.9054,76.3478],[-117.6681,75.2925],[-115.6812,74.9644],[-111.0292,75.1711],[-114.4419,74.6644],[-111.6772,74.4933],[-108.8325,75.07],[-106.0008,75.0592],[-105.8372,75.9969],[-108.3961,76.0461],[-108.6533,76.811]]],[[[-95.6597,77.0589],[-95.9958,76.4369],[-93.1153,76.3639],[-92.0095,75.5921],[-92.0632,74.8123],[-89.9374,74.5315],[-84.2856,74.5036],[-80.2399,74.5771],[-79.4917,75.3786],[-81.2125,75.7714],[-83.7315,75.8235],[-87.4985,75.4805],[-91.3367,76.1786],[-89.3781,76.1803],[-91.3853,76.6883],[-93.0464,76.6161],[-95.6597,77.0589]]],[[[-116.3511,77.5392],[-119.1533,77.3258],[-123.0378,76.0847],[-120.3322,75.8075],[-115.8944,76.6989],[-116.3511,77.5392]]],[[[-109.6053,78.0711],[-113.2328,77.9026],[-112.0311,77.3247],[-110.0842,77.5592],[-109.6053,78.0711]]],[[[-96.7681,78.6841],[-98.3654,78.7658],[-96.8875,78.0831],[-94.895,78.3958],[-96.7681,78.6841]]],[[[-103.5939,79.3258],[-105.3953,79.0117],[-103.1339,78.3691],[-99.0249,77.8915],[-99.5369,78.581],[-103.5939,79.3258]]],[[[-92.7278,81.3055],[-96.8021,80.0889],[-95.0186,79.2669],[-91.1583,79.3561],[-94.2414,78.9966],[-92.0311,78.2075],[-88.8178,78.1544],[-86.3417,79.0883],[-87.6751,80.4071],[-90.7414,80.5622],[-92.7278,81.3055]]],[[[-70.1119,83.1094],[-81.5792,82.793],[-86.7522,82.1411],[-91.9436,81.6283],[-88.998,81.5406],[-89.8208,81.0108],[-86.739,80.6033],[-83.1585,80.5491],[-76.5908,80.8428],[-83.782,80.2458],[-86.5147,80.2991],[-86.4979,79.7718],[-84.3289,78.9653],[-86.6158,78.803],[-87.5058,78.1283],[-85.4183,78.1189],[-84.8589,77.5428],[-87.2947,77.898],[-86.9475,77.2717],[-89.5246,76.8489],[-88.9114,76.4068],[-85.1744,76.2803],[-80.7782,76.4215],[-77.7769,76.6543],[-79.6603,77.2444],[-77.7243,77.6039],[-74.79,78.5914],[-77.3257,79.2644],[-72.2178,79.66],[-61.1569,82.2353],[-64.6847,82.9017],[-70.1119,83.1094]]],[[[-32.3003,83.5703],[-38.7992,83.4333],[-40.6536,82.9772],[-43.2431,83.2622],[-46.8542,82.9669],[-43.8303,82.3358],[-45.1344,81.7817],[-49.6103,82.5033],[-49.4351,81.929],[-54.5053,82.3655],[-61.4533,81.7366],[-60.8919,81.1655],[-64.7608,80.9883],[-67.4819,80.3242],[-64.9661,80.0628],[-65.9767,79.1017],[-72.5522,78.5211],[-72.8697,78.1455],[-69.2067,77.4494],[-70.6978,76.8055],[-68.0925,76.705],[-69.6158,76.3653],[-64.7389,76.1283],[-63.4956,76.3661],[-58.4236,75.7197],[-58.1506,75.0775],[-56.1528,74.3664],[-55.6619,73.1186],[-54.6054,72.8264],[-55.8836,71.673],[-55.3842,71.3986],[-53.2636,71.71],[-51.8195,71.5919],[-52.4133,71.1467],[-51.0056,70.4247],[-54.0181,70.8269],[-54.5539,70.6572],[-52.3394,70.0542],[-50.5775,69.9705],[-51.2888,68.747],[-53.1481,68.1991],[-53.9611,67.0743],[-53.1125,66.76],[-53.5286,66.1025],[-52.2228,65.3278],[-52.0047,64.2018],[-51.0594,63.1842],[-48.6392,61.2104],[-47.6539,60.8086],[-46.4058,61.0824],[-45.169,60.0922],[-43.1375,60.0794],[-43.0897,61.1975],[-42.1178,61.9951],[-42.9647,62.5222],[-41.7517,62.8407],[-40.5139,63.7208],[-40.9851,65.0797],[-39.4633,65.5498],[-36.0636,65.9341],[-34.64,66.3722],[-33.0236,67.6767],[-31.9992,68.0953],[-30.0453,68.1103],[-29.8661,68.4132],[-26.4022,68.6591],[-23.274,69.8598],[-25.1989,70.4058],[-27.2836,69.984],[-26.8233,70.4711],[-28.2167,70.368],[-27.9319,70.8808],[-25.5978,71.1691],[-25.6239,71.5372],[-23.3319,70.4375],[-21.6442,70.4372],[-21.8981,71.7383],[-25.4728,72.8294],[-24.9858,73.0168],[-26.7711,73.3275],[-25.7214,73.2636],[-23.9836,73.5928],[-22.2267,73.2453],[-20.5011,73.4528],[-20.2794,73.8769],[-21.6611,74.4472],[-20.7056,75.2958],[-19.3849,75.2626],[-19.873,76.2369],[-21.7685,76.6217],[-18.4196,76.7561],[-21.962,77.6395],[-20.8526,78.8001],[-17.1673,80.0021],[-20.4292,79.8218],[-19.4969,80.2636],[-14.0298,80.8279],[-11.4701,81.4587],[-13.9848,81.7834],[-17.0626,81.3839],[-21.328,81.438],[-21.3648,82.0698],[-25.8183,81.5077],[-25.0689,82.1525],[-21.3378,82.6194],[-25.2431,82.8441],[-25.6719,83.2775],[-32.3003,83.5703]]]]},"properties":{"CONTINENT":"North America","SQKM":24189364.532}}
]}